{
"type": "FeatureCollection",
"name": "road_hotspot_segments_top50_250m",
"crs": { "type": "name", "properties": { "name": "urn:ogc:def:crs:OGC:1.3:CRS84" } },
"features": [
{ "type": "Feature", "properties": { "segment_id": 1613, "length_km": 10.000000000000027, "route_code": "N35", "is_kkh_proxy": true, "iso_cc": "PK", "road_type": "Highway", "road_rank": 1, "sample_n": 11, "mean_probability": 0.9936825, "max_probability": 0.99459112, "mean_uncertainty_std": 0.0079184351, "mean_reliability_score": 0.97699189, "mean_added_value_fused_minus_conventional": -0.0032960663, "mean_positive_added_value": 0.0, "high80_share": 1.0, "high90_share": 1.0, "very_high_zone_share": 1.0, "uncertainty_norm": 0.016797537, "priority_score": 1.0769910573959351, "hotspot_rank": 1 }, "geometry": { "type": "LineString", "coordinates": [ [ 74.537568983219387, 35.832982836214647 ], [ 74.536183835259024, 35.833969116021116 ], [ 74.533114554236775, 35.835943221350291 ], [ 74.531250001148834, 35.837745666713417 ], [ 74.529027343655585, 35.838432311967239 ], [ 74.527015686948076, 35.840578079058915 ], [ 74.522674800215114, 35.844440460183321 ], [ 74.520451427662806, 35.847530364723482 ], [ 74.51822805511047, 35.851993560669406 ], [ 74.515686990662587, 35.854139327761118 ], [ 74.512616515779413, 35.855855941793834 ], [ 74.508169771573492, 35.857057571437181 ], [ 74.502554059568183, 35.857915877555364 ], [ 74.499695182850616, 35.858259201080628 ], [ 74.4975452439798, 35.859375000291749 ], [ 74.495320678464978, 35.860576629036665 ], [ 74.493308067746824, 35.861177444756642 ], [ 74.489706398374295, 35.862979888323224 ], [ 74.487375856808598, 35.865297317177514 ], [ 74.485151291293832, 35.866842269447616 ], [ 74.482503057832545, 35.868816376573371 ], [ 74.476888658266049, 35.871047974097323 ], [ 74.47254550508417, 35.871391295826029 ], [ 74.469261647083343, 35.87121963496184 ], [ 74.467248917787614, 35.872421264605087 ], [ 74.465024352272934, 35.87319374118934 ], [ 74.459727764976407, 35.876283645729579 ], [ 74.457821012629907, 35.876884460551231 ], [ 74.454960943848164, 35.877056122313903 ], [ 74.453266025025698, 35.877828597999816 ], [ 74.450405836768041, 35.878000258864184 ], [ 74.448515788564137, 35.877450607223039 ] ] } },
{ "type": "Feature", "properties": { "segment_id": 1597, "length_km": 9.9999999999999716, "route_code": "N35", "is_kkh_proxy": true, "iso_cc": "PK", "road_type": "Highway", "road_rank": 1, "sample_n": 10, "mean_probability": 0.99452436, "max_probability": 0.99494183, "mean_uncertainty_std": 0.0087243337, "mean_reliability_score": 0.97611886, "mean_added_value_fused_minus_conventional": -0.003971708, "mean_positive_added_value": 0.0, "high80_share": 1.0, "high90_share": 1.0, "very_high_zone_share": 1.0, "uncertainty_norm": 0.018507106, "priority_score": 1.076118564605713, "hotspot_rank": 2 }, "geometry": { "type": "LineString", "coordinates": [ [ 73.546228621177576, 35.527165631028623 ], [ 73.546871782103068, 35.526609420480654 ], [ 73.550879121671514, 35.524635315151592 ], [ 73.555202842493259, 35.52454948382109 ], [ 73.559210182061705, 35.526094436091093 ], [ 73.563112020788182, 35.528755187572131 ], [ 73.568068505014892, 35.531759262578319 ], [ 73.572913766131265, 35.534076690534157 ], [ 73.576289297203942, 35.535535812372053 ], [ 73.579491377069928, 35.536270737580672 ], [ 73.580403208406224, 35.536479950718764 ], [ 73.585994004733521, 35.536394119388248 ], [ 73.590635299771392, 35.536651611582926 ], [ 73.59559321411615, 35.537338256836605 ], [ 73.600972891080232, 35.538024902090285 ], [ 73.608567953673187, 35.540943145766001 ], [ 73.613209247812776, 35.54334640505229 ], [ 73.617112279502081, 35.545063019084886 ], [ 73.621331692444741, 35.544805526890109 ], [ 73.623335838336175, 35.543603896348607 ], [ 73.625867605218417, 35.540685653571103 ], [ 73.628715634776356, 35.538282394284707 ], [ 73.632303833907997, 35.535106658414165 ], [ 73.636100888648343, 35.533561706144098 ], [ 73.640847206624599, 35.531845093009728 ], [ 73.642697966884327, 35.531333624254259 ] ] } },
{ "type": "Feature", "properties": { "segment_id": 1596, "length_km": 10.000000000000048, "route_code": "N35", "is_kkh_proxy": true, "iso_cc": "PK", "road_type": "Highway", "road_rank": 1, "sample_n": 11, "mean_probability": 0.99423563, "max_probability": 0.99478048, "mean_uncertainty_std": 0.0086461687, "mean_reliability_score": 0.97600037, "mean_added_value_fused_minus_conventional": -0.0041859094, "mean_positive_added_value": 0.0, "high80_share": 1.0, "high90_share": 1.0, "very_high_zone_share": 1.0, "uncertainty_norm": 0.018341294, "priority_score": 1.0760000705718995, "hotspot_rank": 3 }, "geometry": { "type": "LineString", "coordinates": [ [ 73.452741267758242, 35.530821030591831 ], [ 73.454573274169121, 35.531330108621979 ], [ 73.4584755899008, 35.53210258520614 ], [ 73.462166905745221, 35.532102585206111 ], [ 73.465436458970331, 35.532360076502506 ], [ 73.468916893505067, 35.53356170614564 ], [ 73.472713709293146, 35.535707474135542 ], [ 73.476402283479317, 35.536994933312492 ], [ 73.4823094610596, 35.536994933312442 ], [ 73.485368609082201, 35.534849166220823 ], [ 73.490220904007103, 35.531158446859124 ], [ 73.495811701232441, 35.528841018903186 ], [ 73.501507997503111, 35.527896881454666 ], [ 73.506587505109565, 35.528154372751032 ], [ 73.511107206885214, 35.530042648546207 ], [ 73.516711353974017, 35.532274246968235 ], [ 73.519980431092108, 35.535106658415224 ], [ 73.521667838200571, 35.537939071658904 ], [ 73.524198770547713, 35.540084838750467 ], [ 73.527151465514223, 35.539054869971565 ], [ 73.530209779900318, 35.536308288956626 ], [ 73.534322499936437, 35.534076690534519 ], [ 73.539489865472774, 35.532445906933994 ], [ 73.54349720504122, 35.52952766415649 ], [ 73.546228621177576, 35.527165631028623 ] ] } },
{ "type": "Feature", "properties": { "segment_id": 1598, "length_km": 10.000000000000027, "route_code": "N35", "is_kkh_proxy": true, "iso_cc": "PK", "road_type": "Highway", "road_rank": 1, "sample_n": 11, "mean_probability": 0.99439502, "max_probability": 0.99491346, "mean_uncertainty_std": 0.0087936362, "mean_reliability_score": 0.97584575, "mean_added_value_fused_minus_conventional": -0.0041775485, "mean_positive_added_value": 0.0, "high80_share": 1.0, "high90_share": 1.0, "very_high_zone_share": 1.0, "uncertainty_norm": 0.018654119, "priority_score": 1.0758454561233521, "hotspot_rank": 4 }, "geometry": { "type": "LineString", "coordinates": [ [ 73.642697966884327, 35.531333624254259 ], [ 73.64643728789315, 35.530300139841309 ], [ 73.650761723774167, 35.528326034512247 ], [ 73.653926015109576, 35.526351928284861 ], [ 73.658566833142203, 35.524635315150498 ], [ 73.663207769752518, 35.523519516837716 ], [ 73.66869235107751, 35.523004532448205 ], [ 73.673333286789514, 35.523090362880303 ], [ 73.677974105720509, 35.523948668998251 ], [ 73.683036685474278, 35.525236129971795 ], [ 73.685778976136788, 35.526180267420223 ], [ 73.692423940061019, 35.527296066631195 ], [ 73.698857904097977, 35.528240203181262 ], [ 73.704026221849034, 35.528841018901097 ], [ 73.708350659526786, 35.53004264854421 ], [ 73.712358713256293, 35.530557632035297 ], [ 73.717316032018388, 35.530128479874556 ], [ 73.720480203877983, 35.530128479874534 ], [ 73.724066376410519, 35.529098511095583 ], [ 73.727547049897737, 35.528926849332947 ], [ 73.732187986508237, 35.527896881452293 ], [ 73.735246777900159, 35.526437759614389 ], [ 73.735457659209914, 35.523347855074313 ], [ 73.735563159153585, 35.519914627009044 ], [ 73.737356186580286, 35.517511367722676 ], [ 73.739067949108431, 35.517036684620805 ] ] } },
{ "type": "Feature", "properties": { "segment_id": 1595, "length_km": 9.9999999999999822, "route_code": "N35", "is_kkh_proxy": true, "iso_cc": "PK", "road_type": "Highway", "road_rank": 1, "sample_n": 10, "mean_probability": 0.9941479, "max_probability": 0.99484551, "mean_uncertainty_std": 0.0088912072, "mean_reliability_score": 0.97539747, "mean_added_value_fused_minus_conventional": -0.0044012191, "mean_positive_added_value": 0.0, "high80_share": 1.0, "high90_share": 1.0, "very_high_zone_share": 1.0, "uncertainty_norm": 0.018861098, "priority_score": 1.0753971695899964, "hotspot_rank": 5 }, "geometry": { "type": "LineString", "coordinates": [ [ 73.349353776794416, 35.504183172159067 ], [ 73.349447846261214, 35.504207611219243 ], [ 73.353665113128031, 35.505151748667657 ], [ 73.358936667965494, 35.50523757909977 ], [ 73.36304664634298, 35.504722594710287 ], [ 73.368529557698906, 35.505924225251725 ], [ 73.374645113882082, 35.507383347089572 ], [ 73.380866170008943, 35.508756637597003 ], [ 73.386032701009924, 35.510301590765302 ], [ 73.390882969335266, 35.511674881272711 ], [ 73.397842049858795, 35.513305663974826 ], [ 73.403746723834118, 35.515279769303831 ], [ 73.40880775399323, 35.517168045098991 ], [ 73.414607047500851, 35.519828796580015 ], [ 73.420612812488386, 35.523691176805897 ], [ 73.424620628163623, 35.525493622168959 ], [ 73.427573680659464, 35.525922775227933 ], [ 73.432636141834848, 35.52712440487106 ], [ 73.436643838932525, 35.527124404871032 ], [ 73.440862536815786, 35.527296066633582 ], [ 73.445713996307305, 35.528841018903584 ], [ 73.45024919491982, 35.530128479877177 ], [ 73.452741267758242, 35.530821030591831 ] ] } },
{ "type": "Feature", "properties": { "segment_id": 1594, "length_km": 10.0, "route_code": "N35", "is_kkh_proxy": true, "iso_cc": "PK", "road_type": "Highway", "road_rank": 1, "sample_n": 11, "mean_probability": 0.99402481, "max_probability": 0.99477053, "mean_uncertainty_std": 0.0088544125, "mean_reliability_score": 0.97535437, "mean_added_value_fused_minus_conventional": -0.004215105, "mean_positive_added_value": 0.0, "high80_share": 1.0, "high90_share": 1.0, "very_high_zone_share": 1.0, "uncertainty_norm": 0.018783046, "priority_score": 1.075354015827179, "hotspot_rank": 6 }, "geometry": { "type": "LineString", "coordinates": [ [ 73.260796905908023, 35.477377784809718 ], [ 73.263677478153042, 35.481719971524676 ], [ 73.26841902787082, 35.481290817567341 ], [ 73.272949814856617, 35.48060417141528 ], [ 73.27787339738704, 35.480175018356242 ], [ 73.282406092394467, 35.481376647999383 ], [ 73.288730859918942, 35.484724044734151 ], [ 73.293790579435765, 35.488586425858344 ], [ 73.296847581382806, 35.492706299177307 ], [ 73.298850417530161, 35.496826172496256 ], [ 73.300953030454451, 35.500345230095313 ], [ 73.304220199550528, 35.504121779889068 ], [ 73.3089659219429, 35.506439208743267 ], [ 73.314871549030471, 35.506954193132678 ], [ 73.319189190952201, 35.505151748667899 ], [ 73.323406458717301, 35.502233504992063 ], [ 73.328888893966024, 35.500516891857721 ], [ 73.334792971459834, 35.50060272228982 ], [ 73.339221120534575, 35.5014610293061 ], [ 73.344492674473685, 35.502920151143975 ], [ 73.349353776794416, 35.504183172159067 ] ] } },
{ "type": "Feature", "properties": { "segment_id": 1619, "length_km": 10.000000000000009, "route_code": "N35", "is_kkh_proxy": true, "iso_cc": "PK", "road_type": "Highway", "road_rank": 1, "sample_n": 11, "mean_probability": 0.99356884, "max_probability": 0.99472976, "mean_uncertainty_std": 0.0086742761, "mean_reliability_score": 0.97528958, "mean_added_value_fused_minus_conventional": -0.0042364816, "mean_positive_added_value": 0.0, "high80_share": 1.0, "high90_share": 1.0, "very_high_zone_share": 1.0, "uncertainty_norm": 0.018400919, "priority_score": 1.0752862453460694, "hotspot_rank": 7 }, "geometry": { "type": "LineString", "coordinates": [ [ 74.308809770101306, 36.215217239364634 ], [ 74.308534622591438, 36.215829849464996 ], [ 74.307348490682159, 36.218833922674641 ], [ 74.307683706912087, 36.223468780383072 ], [ 74.307896495345162, 36.225872039669426 ], [ 74.307871700046562, 36.228103637193179 ], [ 74.306807518928764, 36.232395172274785 ], [ 74.305530549377835, 36.235055923755887 ], [ 74.306594730495448, 36.236171722966915 ], [ 74.312554002281487, 36.236257552500589 ], [ 74.317342759369623, 36.236686706457796 ], [ 74.321705819217186, 36.237802505668732 ], [ 74.326920271749287, 36.238574981354468 ], [ 74.330644846821485, 36.239433288370698 ], [ 74.332773090479193, 36.240549087581684 ], [ 74.33596563383216, 36.242265701614237 ], [ 74.3395837549498, 36.244153976511043 ], [ 74.345223785246617, 36.246385574034669 ], [ 74.346713662706549, 36.247243881050942 ], [ 74.349586845094294, 36.248703002888782 ], [ 74.352566600912439, 36.251535416132356 ], [ 74.354801297626352, 36.255140305061843 ], [ 74.356073380342011, 36.256856918196121 ], [ 74.35756349585553, 36.257286072153413 ], [ 74.360756756064305, 36.256856918196007 ], [ 74.363630653511166, 36.255311965925891 ], [ 74.364482164773449, 36.253080368402124 ], [ 74.36469507358099, 36.249732970768989 ], [ 74.369378567881029, 36.247844695871969 ], [ 74.373103977488398, 36.247243881050288 ], [ 74.374304385990428, 36.246817977280671 ] ] } },
{ "type": "Feature", "properties": { "segment_id": 1618, "length_km": 10.000000000000046, "route_code": "N35", "is_kkh_proxy": true, "iso_cc": "PK", "road_type": "Highway", "road_rank": 1, "sample_n": 11, "mean_probability": 0.99409425, "max_probability": 0.99478102, "mean_uncertainty_std": 0.0089696413, "mean_reliability_score": 0.97517991, "mean_added_value_fused_minus_conventional": -0.0040816069, "mean_positive_added_value": 0.0, "high80_share": 1.0, "high90_share": 1.0, "very_high_zone_share": 1.0, "uncertainty_norm": 0.019027483, "priority_score": 1.075179135799408, "hotspot_rank": 8 }, "geometry": { "type": "LineString", "coordinates": [ [ 74.297478370691323, 36.136017579860933 ], [ 74.297462822026958, 36.136608124346083 ], [ 74.298100352791437, 36.138839721869822 ], [ 74.297994018312707, 36.142101287274166 ], [ 74.296080113580274, 36.144847870085734 ], [ 74.293422103754438, 36.149139404269057 ], [ 74.290126205634579, 36.153516768884522 ], [ 74.287149310950539, 36.15789413439829 ], [ 74.286511421758021, 36.161670684192117 ], [ 74.286617757134806, 36.166133880137956 ], [ 74.287361979907317, 36.169824600397931 ], [ 74.28863775829187, 36.174030304149014 ], [ 74.289275647484146, 36.176090240808485 ], [ 74.290118933771339, 36.18081092894905 ], [ 74.292139769463532, 36.18295669604062 ], [ 74.296500325706177, 36.185789107487544 ], [ 74.300344944446351, 36.188364028536398 ], [ 74.30298793354207, 36.190938949585281 ], [ 74.30607223619127, 36.193685531498431 ], [ 74.308412075319254, 36.1980628970121 ], [ 74.312134505214374, 36.201066970221603 ], [ 74.313410759706059, 36.205358505303138 ], [ 74.313427091077855, 36.207933425453781 ], [ 74.310539126912047, 36.211366653519114 ], [ 74.308809770101306, 36.215217239364634 ] ] } },
{ "type": "Feature", "properties": { "segment_id": 1556, "length_km": 10.000000000000007, "route_code": "N15", "is_kkh_proxy": false, "iso_cc": "PK", "road_type": "Major road", "road_rank": 2, "sample_n": 11, "mean_probability": 0.99401402, "max_probability": 0.99466866, "mean_uncertainty_std": 0.0091025, "mean_reliability_score": 0.97482073, "mean_added_value_fused_minus_conventional": -0.0033542297, "mean_positive_added_value": 0.0, "high80_share": 1.0, "high90_share": 1.0, "very_high_zone_share": 1.0, "uncertainty_norm": 0.019309318, "priority_score": 1.0748202562332154, "hotspot_rank": 9 }, "geometry": { "type": "LineString", "coordinates": [ [ 74.148905754470974, 35.405628920075308 ], [ 74.146919727598032, 35.402841567224655 ], [ 74.144868016809767, 35.399848222594521 ], [ 74.143309712878306, 35.396850108808543 ], [ 74.142400503723934, 35.395100712556264 ], [ 74.141216039986531, 35.391077399147207 ], [ 74.144966721896978, 35.387054085738036 ], [ 74.146151185634622, 35.382789373452503 ], [ 74.145953774562543, 35.382065176823282 ], [ 74.144275785390775, 35.376352072177667 ], [ 74.142894030057292, 35.369592904536511 ], [ 74.141914367831859, 35.364845395396536 ], [ 74.142900944390291, 35.360419749927871 ], [ 74.13895463995371, 35.356074571949208 ], [ 74.137474776014699, 35.349476337491211 ], [ 74.138658762746971, 35.342958569624741 ], [ 74.137031197808739, 35.338811873509698 ], [ 74.133137584055206, 35.335035323715999 ], [ 74.13188183361008, 35.331087112159658 ], [ 74.131145597758817, 35.327224731933711 ], [ 74.130304217696761, 35.321989059403734 ], [ 74.130187449771952, 35.321357773344914 ] ] } },
{ "type": "Feature", "properties": { "segment_id": 1592, "length_km": 10.000000000000012, "route_code": "N35", "is_kkh_proxy": true, "iso_cc": "PK", "road_type": "Highway", "road_rank": 1, "sample_n": 11, "mean_probability": 0.99370766, "max_probability": 0.99438959, "mean_uncertainty_std": 0.0090236114, "mean_reliability_score": 0.97468716, "mean_added_value_fused_minus_conventional": -0.0038869272, "mean_positive_added_value": 0.0, "high80_share": 1.0, "high90_share": 1.0, "very_high_zone_share": 1.0, "uncertainty_norm": 0.01914197, "priority_score": 1.0746861457824708, "hotspot_rank": 10 }, "geometry": { "type": "LineString", "coordinates": [ [ 73.201296100922036, 35.326518380283687 ], [ 73.201229452633854, 35.329456329468968 ], [ 73.203122854216545, 35.333747863652178 ], [ 73.20533180251762, 35.336322784701132 ], [ 73.20596289685264, 35.340099334494909 ], [ 73.206576942960183, 35.344905853067594 ], [ 73.205537438564235, 35.348339080234517 ], [ 73.205244064063706, 35.349798202970739 ], [ 73.205221772369939, 35.350742340419174 ], [ 73.203538060032429, 35.354690551077255 ], [ 73.201643824813104, 35.358896254828373 ], [ 73.199749588695454, 35.362844467283075 ], [ 73.200907111956766, 35.368766785066796 ], [ 73.202696085285993, 35.370655059963688 ], [ 73.205221772369811, 35.372800827055315 ], [ 73.2061688904286, 35.376749038611656 ], [ 73.204695582395317, 35.381040572794895 ], [ 73.201957106878467, 35.385417938308599 ], [ 73.199956893811745, 35.389366150763323 ], [ 73.198272586789571, 35.392284393540827 ], [ 73.197009324632702, 35.395460129411326 ], [ 73.197851539229219, 35.39992332445884 ], [ 73.201851844988298, 35.401811600254042 ], [ 73.20466017799319, 35.40421485954036 ], [ 73.205337758986218, 35.408892792690381 ] ] } },
{ "type": "Feature", "properties": { "segment_id": 1633, "length_km": 7.9282530353077449, "route_code": "N35", "is_kkh_proxy": true, "iso_cc": "PK", "road_type": "Highway", "road_rank": 1, "sample_n": 10, "mean_probability": 0.99346542, "max_probability": 0.99471039, "mean_uncertainty_std": 0.0091861989, "mean_reliability_score": 0.97411329, "mean_added_value_fused_minus_conventional": -0.0041076662, "mean_positive_added_value": 0.0, "high80_share": 1.0, "high90_share": 1.0, "very_high_zone_share": 1.0, "uncertainty_norm": 0.019486871, "priority_score": 1.0741058945655824, "hotspot_rank": 11 }, "geometry": { "type": "LineString", "coordinates": [ [ 74.746125527742223, 36.29948199252388 ], [ 74.745634080387674, 36.298946142331587 ], [ 74.744436026935546, 36.298527717852068 ], [ 74.743038178282447, 36.298109292474251 ], [ 74.741720320113927, 36.297755241268007 ], [ 74.740362406965176, 36.297272443515247 ], [ 74.739364029238132, 36.297272443515283 ], [ 74.7366482029406, 36.296306848009728 ], [ 74.73493075526838, 36.296178103259933 ], [ 74.732095123356174, 36.295309066765967 ], [ 74.730697275601401, 36.29508376120792 ], [ 74.729339481928562, 36.294955014661447 ], [ 74.728500724946358, 36.294858455649916 ], [ 74.727062941687223, 36.294536590181977 ], [ 74.72534561259269, 36.294118166600796 ], [ 74.724267364755306, 36.293989420054324 ], [ 74.723548413387803, 36.29360318221142 ], [ 74.722749711385845, 36.293410062391672 ], [ 74.72179114968722, 36.293570995574854 ], [ 74.720952512180915, 36.294246912249186 ], [ 74.72051322612468, 36.294955014661795 ], [ 74.720313550399595, 36.295469999051235 ], [ 74.719914079473497, 36.295695304609367 ], [ 74.719155312975872, 36.295630932234467 ], [ 74.718436481084311, 36.29559874559785 ], [ 74.717677594212404, 36.296435593658678 ], [ 74.7171584380458, 36.297465562437623 ], [ 74.716918827714622, 36.298785210047896 ], [ 74.716439129148668, 36.299171447890828 ], [ 74.715640427146738, 36.299428940085591 ], [ 74.714801670164491, 36.299718618917012 ], [ 74.713763356932986, 36.302229165794401 ], [ 74.712763788039823, 36.303613185779653 ], [ 74.712004901167901, 36.304482221375423 ], [ 74.71212470588425, 36.305222511322967 ], [ 74.71184504147115, 36.306027173645475 ], [ 74.711285949800271, 36.306670904581466 ], [ 74.710926414378505, 36.307024955787803 ], [ 74.710646869441362, 36.307829619008615 ], [ 74.709927918073788, 36.308505534784629 ], [ 74.708969355476881, 36.30860209469455 ], [ 74.707890869585995, 36.308376788238171 ], [ 74.706972242493421, 36.308408975773155 ], [ 74.705574275262762, 36.308022737031969 ], [ 74.703097940718834, 36.30799055129372 ], [ 74.700821281899906, 36.308569908058203 ], [ 74.699503184779601, 36.309181451459281 ], [ 74.697143914192011, 36.310672759933929 ], [ 74.694587946692977, 36.311016082560883 ], [ 74.691286445778857, 36.310844421696729 ], [ 74.688091397920999, 36.311273574755866 ], [ 74.686042667741219, 36.312689781377777 ], [ 74.684205414454425, 36.313172579130658 ], [ 74.682807565801454, 36.313108205857453 ], [ 74.678613068526673, 36.312131881772501 ], [ 74.675767184142416, 36.311176299787441 ], [ 74.673848153621961, 36.311855554601394 ] ] } },
{ "type": "Feature", "properties": { "segment_id": 1593, "length_km": 9.9999999999999787, "route_code": "N35", "is_kkh_proxy": true, "iso_cc": "PK", "road_type": "Highway", "road_rank": 1, "sample_n": 10, "mean_probability": 0.99364948, "max_probability": 0.99483305, "mean_uncertainty_std": 0.0092805633, "mean_reliability_score": 0.97409236, "mean_added_value_fused_minus_conventional": -0.0045619966, "mean_positive_added_value": 0.0, "high80_share": 1.0, "high90_share": 1.0, "very_high_zone_share": 1.0, "uncertainty_norm": 0.019687047, "priority_score": 1.0740874767303468, "hotspot_rank": 12 }, "geometry": { "type": "LineString", "coordinates": [ [ 73.205337758986218, 35.408892792690381 ], [ 73.205430984609436, 35.409536361604175 ], [ 73.203426838718414, 35.412883758338999 ], [ 73.20205771998674, 35.417947770004737 ], [ 73.202057719986698, 35.422496795484378 ], [ 73.201109767392978, 35.428075790641266 ], [ 73.202162981876768, 35.430307388165012 ], [ 73.204479932827851, 35.431337356045567 ], [ 73.20785009916105, 35.433654784899787 ], [ 73.209324598360354, 35.435371398932375 ], [ 73.214470505838634, 35.440177917505025 ], [ 73.21742081667594, 35.442495345460927 ], [ 73.219317436024014, 35.4435253142398 ], [ 73.220265746147192, 35.444984436077682 ], [ 73.224796652608816, 35.44816017194821 ], [ 73.228905915927072, 35.45125007558994 ], [ 73.232804536887571, 35.454940795849872 ], [ 73.237199068309252, 35.457172394271936 ], [ 73.242182373534604, 35.460262297913637 ], [ 73.247029304618337, 35.463180541589409 ], [ 73.251560092502359, 35.466442107892021 ], [ 73.255458712564575, 35.470304489016243 ], [ 73.257528901696986, 35.473480223988446 ], [ 73.260375023232683, 35.476741791189419 ], [ 73.260796905908023, 35.477377784809718 ] ] } },
{ "type": "Feature", "properties": { "segment_id": 1547, "length_km": 9.9999999999998668, "route_code": "N35", "is_kkh_proxy": true, "iso_cc": "PK", "road_type": "Highway", "road_rank": 1, "sample_n": 10, "mean_probability": 0.99350148, "max_probability": 0.99433494, "mean_uncertainty_std": 0.0094482079, "mean_reliability_score": 0.97359115, "mean_added_value_fused_minus_conventional": -0.0044954955, "mean_positive_added_value": 0.0, "high80_share": 1.0, "high90_share": 1.0, "very_high_zone_share": 1.0, "uncertainty_norm": 0.020042676, "priority_score": 1.073589062690735, "hotspot_rank": 13 }, "geometry": { "type": "LineString", "coordinates": [ [ 73.050132533938282, 35.123551344490366 ], [ 73.050830960109053, 35.125265121460821 ], [ 73.05156552778837, 35.128526687763461 ], [ 73.055133223770966, 35.130500793092487 ], [ 73.057978272718003, 35.1328182219467 ], [ 73.058503151152095, 35.136079788249361 ], [ 73.056193709218576, 35.13874053883211 ], [ 73.053779244346813, 35.142002106033082 ], [ 73.052776217839693, 35.142345428659965 ], [ 73.052566289642613, 35.144147873124723 ], [ 73.054560422911337, 35.14423370355685 ], [ 73.056613564714439, 35.14389038092996 ], [ 73.059133053422713, 35.141830444270475 ], [ 73.06175744559323, 35.138998031026809 ], [ 73.065536618468471, 35.139083862357239 ], [ 73.06994557413843, 35.141315459880978 ], [ 73.075194477955407, 35.143632888735169 ], [ 73.081598043001193, 35.146207809784073 ], [ 73.087056756437704, 35.147752761155758 ], [ 73.0918856861812, 35.150671004831523 ], [ 73.095979810191807, 35.153417587643041 ], [ 73.099032402308907, 35.156249999988361 ], [ 73.100502013774715, 35.159339904528423 ], [ 73.102396249892237, 35.163288116084807 ], [ 73.103761672954747, 35.168695450377378 ], [ 73.105337024214336, 35.172386168840717 ], [ 73.106777816007991, 35.174424100097589 ] ] } },
{ "type": "Feature", "properties": { "segment_id": 1549, "length_km": 4.3176994104778288, "route_code": "N35", "is_kkh_proxy": true, "iso_cc": "PK", "road_type": "Highway", "road_rank": 1, "sample_n": 7, "mean_probability": 0.99285394, "max_probability": 0.99368984, "mean_uncertainty_std": 0.0094101727, "mean_reliability_score": 0.97303587, "mean_added_value_fused_minus_conventional": -0.0044004745, "mean_positive_added_value": 0.0, "high80_share": 1.0, "high90_share": 1.0, "very_high_zone_share": 1.0, "uncertainty_norm": 0.01996199, "priority_score": 1.0730345606803895, "hotspot_rank": 14 }, "geometry": { "type": "LineString", "coordinates": [ [ 73.178284254995134, 35.240419102947868 ], [ 73.180173397814855, 35.242617130590965 ], [ 73.183406949257886, 35.24371147174481 ], [ 73.187716484782257, 35.244226455235903 ], [ 73.191500425016883, 35.245342254446946 ], [ 73.195494533298813, 35.245943069268492 ], [ 73.199698925510745, 35.245685577972061 ], [ 73.206005454539806, 35.245256424014705 ], [ 73.208738327264186, 35.247488021538445 ], [ 73.209381938724391, 35.251007080035841 ], [ 73.210643053009349, 35.255041122922663 ], [ 73.213375569102595, 35.25787353526799 ] ] } },
{ "type": "Feature", "properties": { "segment_id": 1607, "length_km": 9.9999999999999574, "route_code": "N35", "is_kkh_proxy": true, "iso_cc": "PK", "road_type": "Highway", "road_rank": 1, "sample_n": 10, "mean_probability": 0.99394625, "max_probability": 0.99498218, "mean_uncertainty_std": 0.0099471714, "mean_reliability_score": 0.97298038, "mean_added_value_fused_minus_conventional": -0.0045596361, "mean_positive_added_value": 0.0, "high80_share": 1.0, "high90_share": 1.0, "very_high_zone_share": 1.0, "uncertainty_norm": 0.021101138, "priority_score": 1.072972869873047, "hotspot_rank": 15 }, "geometry": { "type": "LineString", "coordinates": [ [ 74.47707386070887, 35.466096443598268 ], [ 74.479691386702413, 35.469703674174134 ], [ 74.484539747909253, 35.472278595222889 ], [ 74.489915014150128, 35.475025177135933 ], [ 74.493393183137115, 35.477514266854293 ], [ 74.497820020676173, 35.480346679199485 ], [ 74.50066578468558, 35.480690002724586 ], [ 74.504565478238931, 35.480432510529702 ], [ 74.509203076713902, 35.478544235632619 ], [ 74.512892008433496, 35.475883484151431 ], [ 74.518162013682939, 35.473651885729147 ], [ 74.522061707236446, 35.473136901339551 ], [ 74.527015448911513, 35.473051070907239 ], [ 74.531250001165816, 35.4728794100428 ], [ 74.533378482877808, 35.47305107090699 ], [ 74.53738391532697, 35.473222731771131 ], [ 74.540967703734012, 35.473480223965723 ], [ 74.545605542059349, 35.473823547490703 ], [ 74.548873068688707, 35.474424362312185 ], [ 74.552140594419797, 35.474338531879923 ], [ 74.556461573587839, 35.474681854506599 ], [ 74.563629628305804, 35.47657012940325 ], [ 74.565527083089393, 35.478458404300085 ], [ 74.570376039879889, 35.481977462797275 ], [ 74.574253494473226, 35.483556074306222 ] ] } },
{ "type": "Feature", "properties": { "segment_id": 1599, "length_km": 9.9999999999999947, "route_code": "N35", "is_kkh_proxy": true, "iso_cc": "PK", "road_type": "Highway", "road_rank": 1, "sample_n": 10, "mean_probability": 0.99385566, "max_probability": 0.9945575, "mean_uncertainty_std": 0.01010642, "mean_reliability_score": 0.97254974, "mean_added_value_fused_minus_conventional": -0.0044544698, "mean_positive_added_value": 0.0, "high80_share": 1.0, "high90_share": 1.0, "very_high_zone_share": 1.0, "uncertainty_norm": 0.021438954, "priority_score": 1.0725484251976014, "hotspot_rank": 16 }, "geometry": { "type": "LineString", "coordinates": [ [ 73.739067949108431, 35.517036684620805 ], [ 73.741689205864077, 35.516309738079443 ], [ 73.74643409372274, 35.516223907647252 ], [ 73.752444387118885, 35.516996383333016 ], [ 73.756134868429086, 35.517597198154583 ], [ 73.761723280628274, 35.51708221376505 ], [ 73.76551926188219, 35.516567230273871 ], [ 73.768893361939092, 35.515365600630666 ], [ 73.773321987122102, 35.514335632750019 ], [ 73.778805017955321, 35.515365600630538 ], [ 73.782495499265565, 35.51596641545207 ], [ 73.788505793560219, 35.515451431062523 ], [ 73.793566943196481, 35.514507293614024 ], [ 73.798101067424952, 35.513305663970769 ], [ 73.800209880522019, 35.51141738907387 ], [ 73.802424193562814, 35.506525039170668 ], [ 73.804849387014983, 35.502319335419521 ], [ 73.808016896116129, 35.498285293430961 ], [ 73.81096828044123, 35.495710372381986 ], [ 73.814235925645477, 35.493478774858204 ], [ 73.818241477567241, 35.490388870318057 ], [ 73.823406338601586, 35.488243103226374 ], [ 73.829203724987494, 35.486268996998923 ], [ 73.831645346877494, 35.48616058467659 ] ] } },
{ "type": "Feature", "properties": { "segment_id": 1632, "length_km": 10.000000000000073, "route_code": "N35", "is_kkh_proxy": true, "iso_cc": "PK", "road_type": "Highway", "road_rank": 1, "sample_n": 11, "mean_probability": 0.99247515, "max_probability": 0.99483532, "mean_uncertainty_std": 0.0096273785, "mean_reliability_score": 0.97222275, "mean_added_value_fused_minus_conventional": -0.0046022753, "mean_positive_added_value": 0.0, "high80_share": 1.0, "high90_share": 1.0, "very_high_zone_share": 1.0, "uncertainty_norm": 0.020422755, "priority_score": 1.0722060561180116, "hotspot_rank": 17 }, "geometry": { "type": "LineString", "coordinates": [ [ 74.840460698117766, 36.306510340148684 ], [ 74.840177656220831, 36.305952072685756 ], [ 74.840177656220973, 36.304235458653118 ], [ 74.839377524100996, 36.302974820475598 ], [ 74.837986232250941, 36.301824092969717 ], [ 74.835936071054462, 36.300997972590132 ], [ 74.833519699055174, 36.301056981124631 ], [ 74.828796865728464, 36.302738785440233 ], [ 74.826050998868809, 36.304420471178098 ], [ 74.822604420034963, 36.307067870999269 ], [ 74.818770290919019, 36.308012008447896 ], [ 74.81536209709752, 36.308698654600057 ], [ 74.811527968880071, 36.308183670210802 ], [ 74.809823872867781, 36.307067870999845 ], [ 74.80811977505887, 36.30595207268717 ], [ 74.805137636007942, 36.305694580492563 ], [ 74.802368523443789, 36.306724547474971 ], [ 74.799705983412039, 36.3062953953144 ], [ 74.797575832629434, 36.304922103908716 ], [ 74.794913293495966, 36.305437088298291 ], [ 74.791185619233261, 36.304922103908986 ], [ 74.789162040982887, 36.303806304698014 ], [ 74.78703189109865, 36.302433013292358 ], [ 74.785327912765823, 36.300544738395502 ], [ 74.782664896627097, 36.299514770515025 ], [ 74.779043794896623, 36.30002975400631 ], [ 74.776594162774188, 36.300201415769017 ], [ 74.774037959017861, 36.300201415769116 ], [ 74.771268846454049, 36.29960060184596 ], [ 74.767221689953288, 36.300287246201549 ], [ 74.763126612823541, 36.303001642376621 ], [ 74.762247921235129, 36.304128170167147 ], [ 74.760610581726695, 36.304836272579806 ], [ 74.759212733971822, 36.305061579036263 ], [ 74.758174420740374, 36.305125951411249 ], [ 74.756356956440797, 36.305179596105148 ], [ 74.754659892440742, 36.304353475725549 ], [ 74.754100800769919, 36.303516626766431 ], [ 74.753461838988699, 36.302647591170718 ], [ 74.752103925839918, 36.301810741313339 ], [ 74.748948932962065, 36.301295756923999 ], [ 74.747870565648711, 36.300845146706173 ], [ 74.746991993536383, 36.300426721328314 ], [ 74.746125527742223, 36.29948199252388 ] ] } },
{ "type": "Feature", "properties": { "segment_id": 1697, "length_km": 9.9999999999998881, "route_code": "314", "is_kkh_proxy": true, "iso_cc": "CN", "road_type": "Highway", "road_rank": 1, "sample_n": 10, "mean_probability": 0.99400187, "max_probability": 0.99460423, "mean_uncertainty_std": 0.010561852, "mean_reliability_score": 0.97173226, "mean_added_value_fused_minus_conventional": -0.0044991672, "mean_positive_added_value": 0.0, "high80_share": 1.0, "high90_share": 1.0, "very_high_zone_share": 1.0, "uncertainty_norm": 0.022405071, "priority_score": 1.071731185913086, "hotspot_rank": 18 }, "geometry": { "type": "LineString", "coordinates": [ [ 75.237649771997965, 38.774151115500601 ], [ 75.239432814062411, 38.77439439255965 ], [ 75.241729618501807, 38.774442673412857 ], [ 75.247784020088787, 38.773927689023189 ], [ 75.250866296143244, 38.774356842082099 ], [ 75.253618719807761, 38.774442673412466 ], [ 75.256096008364736, 38.774297833547593 ], [ 75.25801587342194, 38.773718475884799 ], [ 75.261050584580516, 38.773380517996692 ], [ 75.263965728177624, 38.774356842081708 ], [ 75.266277434769549, 38.773841857692176 ], [ 75.269689919845007, 38.776416778741044 ], [ 75.270460368933541, 38.776588440503595 ], [ 75.271341088019767, 38.77899169889163 ], [ 75.273432614839805, 38.780107498102602 ], [ 75.275854351579397, 38.780879974686719 ], [ 75.280481340956072, 38.782596588719208 ], [ 75.2858759191856, 38.784141540090772 ], [ 75.290059569307459, 38.784656524480084 ], [ 75.293193581136265, 38.78496766136854 ], [ 75.296224835577689, 38.785686492360497 ], [ 75.298210146496913, 38.785353899211323 ], [ 75.302940490641234, 38.784914016674399 ], [ 75.306203367595145, 38.782119154806118 ], [ 75.308743121404461, 38.780574202535981 ], [ 75.311748030055597, 38.779678344144081 ], [ 75.315821531452627, 38.777961731009597 ], [ 75.316981676000907, 38.77758085700718 ], [ 75.317786934806918, 38.777629136962105 ], [ 75.318778040672569, 38.778353333591312 ], [ 75.321999074997706, 38.782360553681997 ], [ 75.324298741469534, 38.785514831495291 ], [ 75.327931884220604, 38.789548874382035 ], [ 75.328812601510037, 38.793497085938441 ], [ 75.328882044057721, 38.795166357749252 ] ] } },
{ "type": "Feature", "properties": { "segment_id": 1591, "length_km": 10.000000000000009, "route_code": "N35", "is_kkh_proxy": true, "iso_cc": "PK", "road_type": "Highway", "road_rank": 1, "sample_n": 11, "mean_probability": 0.99256778, "max_probability": 0.99416775, "mean_uncertainty_std": 0.0099195205, "mean_reliability_score": 0.9716866, "mean_added_value_fused_minus_conventional": -0.0049395184, "mean_positive_added_value": 0.0, "high80_share": 1.0, "high90_share": 1.0, "very_high_zone_share": 1.0, "uncertainty_norm": 0.021042481, "priority_score": 1.0716817140579225, "hotspot_rank": 19 }, "geometry": { "type": "LineString", "coordinates": [ [ 73.220843315265483, 35.258761882845675 ], [ 73.222612738559192, 35.260877609375861 ], [ 73.222666859360132, 35.26285171470488 ], [ 73.222684621748215, 35.268859862920749 ], [ 73.223315239077778, 35.275382995526058 ], [ 73.225522637785005, 35.280361175861337 ], [ 73.225417613948466, 35.284738540476717 ], [ 73.225402355165002, 35.288085938109816 ], [ 73.224368691615041, 35.289888382574595 ], [ 73.221424579153194, 35.291862487903614 ], [ 73.21805977845716, 35.293493270605829 ], [ 73.214905381167, 35.29546737683323 ], [ 73.210068583978028, 35.295982361222677 ], [ 73.204390526203369, 35.295724869027985 ], [ 73.199764012944343, 35.296068191654854 ], [ 73.197450756763985, 35.299158097093269 ], [ 73.197345614349842, 35.302677154692333 ], [ 73.19398093223144, 35.306282043621849 ], [ 73.191352128434431, 35.309371948161939 ], [ 73.190195560980527, 35.312290191837761 ], [ 73.192068457618532, 35.314607619793634 ], [ 73.195644140522475, 35.317182540842545 ], [ 73.19891536281699, 35.320272445382571 ], [ 73.201334595946321, 35.32482147265884 ], [ 73.201296100922036, 35.326518380283687 ] ] } },
{ "type": "Feature", "properties": { "segment_id": 1545, "length_km": 9.9999999999999112, "route_code": "N35", "is_kkh_proxy": true, "iso_cc": "PK", "road_type": "Highway", "road_rank": 1, "sample_n": 10, "mean_probability": 0.99314976, "max_probability": 0.99470913, "mean_uncertainty_std": 0.01021996, "mean_reliability_score": 0.97164518, "mean_added_value_fused_minus_conventional": -0.0051820637, "mean_positive_added_value": 0.0, "high80_share": 1.0, "high90_share": 1.0, "very_high_zone_share": 1.0, "uncertainty_norm": 0.021679807, "priority_score": 1.0716184735298158, "hotspot_rank": 20 }, "geometry": { "type": "LineString", "coordinates": [ [ 72.904411223874206, 35.040241588083894 ], [ 72.904885291589082, 35.040378570753468 ], [ 72.910650848865146, 35.04063606294816 ], [ 72.914529442784342, 35.04037857075344 ], [ 72.919456363453747, 35.039005279347663 ], [ 72.925116538465517, 35.036945343586474 ], [ 72.932140231213054, 35.036602020061281 ], [ 72.937276959705329, 35.038490294958166 ], [ 72.941784620461902, 35.040206908990754 ], [ 72.945558548074061, 35.042181014319759 ], [ 72.950066327408265, 35.046129226774454 ], [ 72.953735351558151, 35.048103333001791 ], [ 72.954469204178508, 35.050077438330788 ], [ 72.952477336460987, 35.054798126471368 ], [ 72.951638698955961, 35.058746338027767 ], [ 72.951324224826067, 35.06235122695729 ], [ 72.953420877428215, 35.065269470633048 ], [ 72.957299589925043, 35.06698608376734 ], [ 72.960968732652574, 35.068788528232091 ], [ 72.965253114450306, 35.070676803128968 ], [ 72.970077872417448, 35.072908401551018 ], [ 72.975636839636124, 35.075654983464212 ], [ 72.980566501065525, 35.078229904513123 ], [ 72.981624804255119, 35.07919589242065 ] ] } },
{ "type": "Feature", "properties": { "segment_id": 1698, "length_km": 10.000000000000115, "route_code": "314", "is_kkh_proxy": true, "iso_cc": "CN", "road_type": "Highway", "road_rank": 1, "sample_n": 11, "mean_probability": 0.99378318, "max_probability": 0.99485153, "mean_uncertainty_std": 0.010663232, "mean_reliability_score": 0.97130686, "mean_added_value_fused_minus_conventional": -0.0047119204, "mean_positive_added_value": 0.0, "high80_share": 1.0, "high90_share": 1.0, "very_high_zone_share": 1.0, "uncertainty_norm": 0.02262013, "priority_score": 1.0713036417961121, "hotspot_rank": 21 }, "geometry": { "type": "LineString", "coordinates": [ [ 75.328882044057721, 38.795166357749252 ], [ 75.329148294744627, 38.801565169915577 ], [ 75.331792118378871, 38.806457519818686 ], [ 75.334546210215024, 38.808774947774495 ], [ 75.337486627014741, 38.810845613013349 ], [ 75.339345338360658, 38.811714648609048 ], [ 75.342876913992498, 38.814563155170944 ], [ 75.358366134186767, 38.816011547530586 ], [ 75.359419348673256, 38.816059827485482 ], [ 75.363818290834516, 38.814563155170234 ], [ 75.366048696300368, 38.813935518450791 ], [ 75.36821723299569, 38.813887238495788 ], [ 75.369456413119494, 38.814466596158461 ], [ 75.370447638461187, 38.815239071844282 ], [ 75.375032547157673, 38.817170261957131 ], [ 75.376076104754858, 38.817100524843262 ], [ 75.379160525987345, 38.817014694411036 ], [ 75.384573819719179, 38.817121982900161 ], [ 75.385329367554093, 38.816757202216067 ], [ 75.387795570003533, 38.813694119573654 ], [ 75.391718628743433, 38.813495635913135 ], [ 75.395684245170003, 38.813838959438179 ], [ 75.401632907863288, 38.815212249945425 ], [ 75.405598524289957, 38.815555572572173 ], [ 75.411216619534542, 38.815727234334553 ], [ 75.414631488740497, 38.815641403003973 ], [ 75.42179179460166, 38.815727234334162 ], [ 75.423140571154846, 38.815647944046503 ] ] } },
{ "type": "Feature", "properties": { "segment_id": 1064, "length_km": 9.9999999999999662, "route_code": "N45", "is_kkh_proxy": false, "iso_cc": "PK", "road_type": "Major road", "road_rank": 2, "sample_n": 10, "mean_probability": 0.9925977, "max_probability": 0.99437284, "mean_uncertainty_std": 0.010190576, "mean_reliability_score": 0.9711436, "mean_added_value_fused_minus_conventional": -0.0050007342, "mean_positive_added_value": 0.0, "high80_share": 1.0, "high90_share": 1.0, "very_high_zone_share": 1.0, "uncertainty_norm": 0.021617476, "priority_score": 1.0711402654647828, "hotspot_rank": 22 }, "geometry": { "type": "LineString", "coordinates": [ [ 71.748086423106642, 35.430039182040396 ], [ 71.747733950958107, 35.43252825801035 ], [ 71.747337341166912, 35.433912277097242 ], [ 71.744308114230961, 35.433697701016925 ], [ 71.74338614989864, 35.434341431054563 ], [ 71.742596030402268, 35.435628890231555 ], [ 71.74154233891332, 35.44195890481371 ], [ 71.742664932981185, 35.444844960954555 ], [ 71.742464304143951, 35.446357727486259 ], [ 71.740620374581027, 35.447645187561591 ], [ 71.74022531528199, 35.450005530733549 ], [ 71.740915774782422, 35.453631878618587 ], [ 71.738887429176486, 35.456673503203682 ], [ 71.736932754407036, 35.457944869960663 ], [ 71.735291838708406, 35.458964109261828 ], [ 71.734277725194261, 35.461217164842772 ], [ 71.734462022659628, 35.465122461183064 ], [ 71.736629724813909, 35.466934442162888 ], [ 71.739590048272618, 35.467708110811444 ], [ 71.742778896851391, 35.470186471950498 ], [ 71.743938445813427, 35.471956729778618 ], [ 71.746683001127394, 35.477948784676165 ], [ 71.747097968889733, 35.480411052496876 ], [ 71.746742248613643, 35.481811165800423 ], [ 71.744548678572428, 35.485287308183409 ], [ 71.744571566747567, 35.491096973637234 ], [ 71.743125795671403, 35.493736267061117 ], [ 71.743125200986668, 35.497164130387468 ], [ 71.742069125368971, 35.49817800494975 ], [ 71.739507794931924, 35.498805641669087 ], [ 71.738796234005463, 35.50237834486029 ], [ 71.74039733367573, 35.504985451647535 ], [ 71.741397330730194, 35.506470727383984 ] ] } },
{ "type": "Feature", "properties": { "segment_id": 1628, "length_km": 9.9999999999999716, "route_code": "N35", "is_kkh_proxy": true, "iso_cc": "PK", "road_type": "Highway", "road_rank": 1, "sample_n": 10, "mean_probability": 0.99172485, "max_probability": 0.99406064, "mean_uncertainty_std": 0.009833321, "mean_reliability_score": 0.97104895, "mean_added_value_fused_minus_conventional": -0.0047771335, "mean_positive_added_value": 0.0, "high80_share": 1.0, "high90_share": 1.0, "very_high_zone_share": 1.0, "uncertainty_norm": 0.020859623, "priority_score": 1.0710378646850587, "hotspot_rank": 23 }, "geometry": { "type": "LineString", "coordinates": [ [ 74.805943294863113, 36.544760091147126 ], [ 74.806532265081245, 36.544389724629909 ], [ 74.810270788297814, 36.543617248943917 ], [ 74.812086703003814, 36.541299820089606 ], [ 74.812029721068924, 36.536997556428574 ], [ 74.812305690711511, 36.533993483218936 ], [ 74.813240172170907, 36.53120398519129 ], [ 74.814508320266683, 36.530721187438424 ], [ 74.816110255373204, 36.530077457400694 ], [ 74.81938088119189, 36.527287959372927 ], [ 74.821850420879585, 36.526483297948637 ], [ 74.824253321742688, 36.526536941744062 ], [ 74.825721742044877, 36.526536941743998 ], [ 74.827457191057348, 36.526590585539459 ], [ 74.829496623674345, 36.527137755667127 ], [ 74.831418992334932, 36.526622772175898 ], [ 74.835263969506244, 36.526536941743593 ], [ 74.838467957398692, 36.525421142532437 ], [ 74.840390444636895, 36.525764465159192 ], [ 74.842740180506624, 36.524391173753344 ], [ 74.845410229556151, 36.523618698067352 ], [ 74.848080278605565, 36.524219512888834 ], [ 74.851604700950304, 36.525163650337127 ], [ 74.853634001469288, 36.525077819904901 ], [ 74.857799293617333, 36.523962020693702 ], [ 74.860469342666917, 36.523103713677266 ], [ 74.863566638551347, 36.522159576228667 ], [ 74.865595938172277, 36.520013809136927 ], [ 74.867304804239069, 36.518726349061545 ], [ 74.868451358174624, 36.516666412401982 ], [ 74.868800045541192, 36.515121460131923 ], [ 74.869227172001985, 36.512460708650835 ], [ 74.868985535071587, 36.511945724261381 ], [ 74.869519711968238, 36.510765551777055 ], [ 74.871656539030596, 36.50872707317464 ], [ 74.874521972553239, 36.508405208604856 ], [ 74.87699127418766, 36.507600545383944 ], [ 74.879794241560418, 36.505776643760157 ], [ 74.882130147866476, 36.505401134496573 ], [ 74.883598329217023, 36.504864692948161 ], [ 74.885400296680032, 36.504703759764922 ], [ 74.887191620729809, 36.503828968046982 ] ] } },
{ "type": "Feature", "properties": { "segment_id": 1636, "length_km": 9.9999999999999911, "route_code": "N35", "is_kkh_proxy": true, "iso_cc": "CN", "road_type": "Highway", "road_rank": 1, "sample_n": 10, "mean_probability": 0.99196309, "max_probability": 0.99283206, "mean_uncertainty_std": 0.0099479528, "mean_reliability_score": 0.97103041, "mean_added_value_fused_minus_conventional": -0.002282846, "mean_positive_added_value": 0.0, "high80_share": 1.0, "high90_share": 1.0, "very_high_zone_share": 1.0, "uncertainty_norm": 0.021102795, "priority_score": 1.0710298776626588, "hotspot_rank": 24 }, "geometry": { "type": "LineString", "coordinates": [ [ 74.975895894436533, 36.833066647587238 ], [ 74.976503016839757, 36.834840773849152 ], [ 74.975538016914726, 36.837673187092875 ], [ 74.975270868728302, 36.839218139362949 ], [ 74.976021411149574, 36.841621398649266 ], [ 74.977916361431156, 36.845226288477065 ], [ 74.979757072333896, 36.850376128778258 ], [ 74.982116939403838, 36.851835251514373 ], [ 74.986300350571781, 36.85483932472382 ], [ 74.989947439666224, 36.857585906636871 ], [ 74.991985561641769, 36.858701705847828 ], [ 74.993916274753474, 36.860246658117774 ], [ 74.999519350162132, 36.862564086971766 ], [ 75.003541590991702, 36.863744258557553 ], [ 75.009440901137637, 36.864173411616285 ], [ 75.011854292527602, 36.863851547046494 ], [ 75.013999464041248, 36.86192035693341 ], [ 75.01681506801593, 36.860096455309623 ], [ 75.020166994962452, 36.859345436782476 ], [ 75.02271449763812, 36.859452724373348 ], [ 75.025664093422378, 36.859881877432215 ], [ 75.031295301371529, 36.859881877431945 ], [ 75.032233836029775, 36.8594527243729 ], [ 75.033172370687993, 36.859345436781858 ], [ 75.036256076859829, 36.858808994335057 ], [ 75.038535358760811, 36.858701705845604 ], [ 75.046177747312399, 36.857843398828905 ], [ 75.05127263318812, 36.858272552785962 ], [ 75.054624559236544, 36.858057975807135 ], [ 75.059585334725043, 36.857521534258559 ], [ 75.061235006665171, 36.857478967296124 ] ] } },
{ "type": "Feature", "properties": { "segment_id": 1611, "length_km": 9.9999999999999574, "route_code": "N35", "is_kkh_proxy": true, "iso_cc": "PK", "road_type": "Highway", "road_rank": 1, "sample_n": 10, "mean_probability": 0.99252224, "max_probability": 0.99467391, "mean_uncertainty_std": 0.010237835, "mean_reliability_score": 0.97097719, "mean_added_value_fused_minus_conventional": -0.0049134614, "mean_positive_added_value": 0.0, "high80_share": 1.0, "high90_share": 1.0, "very_high_zone_share": 1.0, "uncertainty_norm": 0.021717729, "priority_score": 1.070966935157776, "hotspot_rank": 25 }, "geometry": { "type": "LineString", "coordinates": [ [ 74.63362007141474, 35.692511095378734 ], [ 74.633054495916298, 35.696811675830837 ], [ 74.629673600998487, 35.709385871868278 ], [ 74.62872219168591, 35.716509818396958 ], [ 74.626237989696676, 35.721101760889411 ], [ 74.622855068180058, 35.7251358028781 ], [ 74.620635152344633, 35.726852416910795 ], [ 74.620317937454331, 35.727968216121873 ], [ 74.621057988451014, 35.730972290229808 ], [ 74.621375085661853, 35.732860565126686 ], [ 74.621552588270646, 35.734611034865743 ], [ 74.621903658867311, 35.736122131429354 ], [ 74.621797919971627, 35.736894608013522 ], [ 74.621381045983384, 35.740842819569941 ], [ 74.621432187072543, 35.741271972628923 ], [ 74.620183111108844, 35.744726657853121 ], [ 74.618841410754456, 35.747017263911339 ], [ 74.618471266229236, 35.747805833813842 ], [ 74.617453457044334, 35.748594403716382 ], [ 74.616481782637649, 35.749007463457097 ], [ 74.615649105453372, 35.749045013934293 ], [ 74.614492417623751, 35.748857259751766 ], [ 74.613382102625806, 35.748406648635616 ], [ 74.612235308840724, 35.7481262682658 ], [ 74.610282303137993, 35.748857259751929 ], [ 74.609186530966156, 35.749528169216866 ], [ 74.606604458425181, 35.749860405734928 ], [ 74.605990291942561, 35.750167369948983 ], [ 74.605926038145085, 35.75122821382422 ], [ 74.605456353998022, 35.751847029087486 ], [ 74.604723693441002, 35.75291275979788 ], [ 74.604723693440945, 35.754005670833791 ], [ 74.604007126202276, 35.754320025487708 ], [ 74.601723195521416, 35.755316019084347 ], [ 74.599735857106822, 35.756693124736877 ], [ 74.596583605887787, 35.758900045539924 ], [ 74.59526264853173, 35.760154724293955 ], [ 74.593887926107584, 35.760669708683452 ], [ 74.592724800950549, 35.762815475775128 ], [ 74.591984631375979, 35.765304565493651 ], [ 74.591701466360206, 35.76546258058876 ] ] } },
{ "type": "Feature", "properties": { "segment_id": 1634, "length_km": 10.0, "route_code": "N35", "is_kkh_proxy": true, "iso_cc": "CN", "road_type": "Highway", "road_rank": 1, "sample_n": 11, "mean_probability": 0.9923538, "max_probability": 0.99336082, "mean_uncertainty_std": 0.010265406, "mean_reliability_score": 0.97074759, "mean_added_value_fused_minus_conventional": -0.003488183, "mean_positive_added_value": 0.0, "high80_share": 1.0, "high90_share": 1.0, "very_high_zone_share": 1.0, "uncertainty_norm": 0.021776214, "priority_score": 1.0707440733909608, "hotspot_rank": 26 }, "geometry": { "type": "LineString", "coordinates": [ [ 74.824084402519091, 36.743340014846574 ], [ 74.825002552606364, 36.743946075829392 ], [ 74.826073410003872, 36.746263504683583 ], [ 74.827597857331966, 36.747808456055232 ], [ 74.830812813653708, 36.749782562282476 ], [ 74.83327758418541, 36.750812531061278 ], [ 74.835206509649126, 36.751670837179205 ], [ 74.838099958031947, 36.751756667611239 ], [ 74.839921833059805, 36.7515850067469 ], [ 74.842460395700698, 36.752325296694323 ], [ 74.844569445955685, 36.753371357893158 ], [ 74.84699463941088, 36.754674911286685 ], [ 74.848285557104006, 36.756911873549292 ], [ 74.848687292682826, 36.758843064560551 ], [ 74.848687292682669, 36.760774254673542 ], [ 74.848387839281912, 36.763086318788908 ], [ 74.848923684349856, 36.764202117101597 ], [ 74.851066948739103, 36.765575409405621 ], [ 74.852245808786861, 36.76789283736148 ], [ 74.855782271251272, 36.769523620961813 ], [ 74.858461381606901, 36.770725249706587 ], [ 74.861560346560807, 36.772683263513841 ], [ 74.862665535772052, 36.774051189282368 ], [ 74.864172698615832, 36.775821447110445 ], [ 74.865962983488316, 36.776990891015238 ], [ 74.866820217917763, 36.778278351090528 ], [ 74.86748850520155, 36.779201030481758 ], [ 74.86939215836145, 36.780509948614181 ], [ 74.871857049267462, 36.782827377468323 ], [ 74.873357297778568, 36.783857346247181 ], [ 74.874722720843295, 36.78515553400355 ], [ 74.876465084188595, 36.786260604635061 ], [ 74.878179790202836, 36.787977218667642 ], [ 74.882476093550324, 36.789264678742775 ], [ 74.885677577838223, 36.789420247186911 ], [ 74.888893129743508, 36.789500712880042 ], [ 74.893504860334218, 36.789608001369167 ], [ 74.895863415863587, 36.789007186547494 ], [ 74.898329140406503, 36.788921356115253 ], [ 74.901253106356606, 36.788937449433455 ], [ 74.903916003020029, 36.788578033488143 ], [ 74.905172110996133, 36.788937449433284 ], [ 74.90583827713391, 36.789734495801092 ] ] } },
{ "type": "Feature", "properties": { "segment_id": 1548, "length_km": 9.9999999999999929, "route_code": "N35", "is_kkh_proxy": true, "iso_cc": "PK", "road_type": "Highway", "road_rank": 1, "sample_n": 10, "mean_probability": 0.99205178, "max_probability": 0.99368179, "mean_uncertainty_std": 0.010219753, "mean_reliability_score": 0.97054899, "mean_added_value_fused_minus_conventional": -0.0052053453, "mean_positive_added_value": 0.0, "high80_share": 1.0, "high90_share": 1.0, "very_high_zone_share": 1.0, "uncertainty_norm": 0.02167937, "priority_score": 1.0705447554588319, "hotspot_rank": 27 }, "geometry": { "type": "LineString", "coordinates": [ [ 73.106777816007991, 35.174424100097589 ], [ 73.108067751761695, 35.176248549964939 ], [ 73.109433173925908, 35.179595947598045 ], [ 73.112268924411495, 35.182943343434502 ], [ 73.115314722570105, 35.186548233262307 ], [ 73.119935989667681, 35.190582275250819 ], [ 73.122771739254972, 35.193672179790873 ], [ 73.124999999537948, 35.197792054008119 ], [ 73.127607346176006, 35.20045280459086 ], [ 73.129393338895056, 35.20294189430934 ], [ 73.131809592312564, 35.204744338774091 ], [ 73.135276556609142, 35.207319259823024 ], [ 73.139899134348767, 35.210151672168337 ], [ 73.143260956231202, 35.212554931454648 ], [ 73.147148251232508, 35.214872360308838 ], [ 73.150406003289234, 35.217361450027319 ], [ 73.154714703380293, 35.220708846762086 ], [ 73.159338832510457, 35.224056244395179 ], [ 73.164803505370685, 35.226202011486762 ], [ 73.167851209754417, 35.228176116815781 ], [ 73.170688629309865, 35.229721069085819 ], [ 73.173315882614659, 35.232982636286742 ], [ 73.175312638065776, 35.235557555539046 ], [ 73.177204251102737, 35.23916244536688 ], [ 73.178284254995134, 35.240419102947868 ] ] } },
{ "type": "Feature", "properties": { "segment_id": 1608, "length_km": 9.9999999999999467, "route_code": "N35", "is_kkh_proxy": true, "iso_cc": "PK", "road_type": "Highway", "road_rank": 1, "sample_n": 10, "mean_probability": 0.9938364, "max_probability": 0.99482775, "mean_uncertainty_std": 0.011271124, "mean_reliability_score": 0.97009152, "mean_added_value_fused_minus_conventional": -0.0047135591, "mean_positive_added_value": 0.0, "high80_share": 1.0, "high90_share": 1.0, "very_high_zone_share": 1.0, "uncertainty_norm": 0.023909664, "priority_score": 1.0700740575790406, "hotspot_rank": 28 }, "geometry": { "type": "LineString", "coordinates": [ [ 74.574253494473226, 35.483556074306222 ], [ 74.575224996670457, 35.483951569024441 ], [ 74.579659106072384, 35.485839843921191 ], [ 74.584298016088056, 35.487813950148357 ], [ 74.591572762814579, 35.489187240655518 ], [ 74.598974825071409, 35.494744777754953 ], [ 74.606350184906745, 35.495066642324296 ], [ 74.609531165146777, 35.4976844785892 ], [ 74.611850620603718, 35.502233504967087 ], [ 74.615751625697868, 35.506868362675384 ], [ 74.615751625697584, 35.512447357832272 ], [ 74.618598224242248, 35.515794753668651 ], [ 74.622499228438258, 35.517768859895853 ], [ 74.626927377518555, 35.52077293400361 ], [ 74.631460906168499, 35.521888732316157 ], [ 74.633570314850616, 35.523948668975542 ], [ 74.633570314850459, 35.527210235278233 ], [ 74.629984379468993, 35.533132553062146 ], [ 74.628191472414372, 35.539913176963957 ], [ 74.625685438457239, 35.544212515164439 ] ] } },
{ "type": "Feature", "properties": { "segment_id": 1635, "length_km": 9.9999999999999893, "route_code": "N35", "is_kkh_proxy": true, "iso_cc": "CN", "road_type": "Highway", "road_rank": 1, "sample_n": 10, "mean_probability": 0.99216157, "max_probability": 0.99304086, "mean_uncertainty_std": 0.010712079, "mean_reliability_score": 0.96961814, "mean_added_value_fused_minus_conventional": -0.0042041601, "mean_positive_added_value": 0.0, "high80_share": 1.0, "high90_share": 1.0, "very_high_zone_share": 1.0, "uncertainty_norm": 0.022723751, "priority_score": 1.069615936279297, "hotspot_rank": 29 }, "geometry": { "type": "LineString", "coordinates": [ [ 74.90583827713391, 36.789734495801092 ], [ 74.90723908146829, 36.791410445833385 ], [ 74.908632637971309, 36.79244041461223 ], [ 74.908632637971181, 36.793727874687548 ], [ 74.910454990004595, 36.794843673898512 ], [ 74.911848546507656, 36.79544448872003 ], [ 74.91634118744112, 36.795616149584127 ], [ 74.917637111445714, 36.795530319151915 ], [ 74.920446159514725, 36.794650554976592 ], [ 74.922656895467284, 36.794006824938847 ], [ 74.926174046848729, 36.79328262830947 ], [ 74.929590703699105, 36.793041228534584 ], [ 74.9336103223458, 36.79328262830915 ], [ 74.936717988382185, 36.793813705118467 ], [ 74.93950510228683, 36.794157028643511 ], [ 74.941756249850926, 36.793985366880818 ], [ 74.943156840162843, 36.793845891754785 ], [ 74.94497203981021, 36.793384552059102 ], [ 74.948509575762188, 36.793813705117927 ], [ 74.94990313226549, 36.792955398101533 ], [ 74.952703477456183, 36.792477965087485 ], [ 74.954770685982339, 36.792504787883445 ], [ 74.956656457278299, 36.795616149582344 ], [ 74.957526923891905, 36.798352003814408 ], [ 74.958371641196237, 36.800251007290711 ], [ 74.959938647109638, 36.802777648384655 ], [ 74.960943581640095, 36.80575489969651 ], [ 74.961491705779707, 36.807546615581806 ], [ 74.962651969802906, 36.810100078573505 ], [ 74.963154317592171, 36.812192201869642 ], [ 74.963100077314891, 36.815185546499819 ], [ 74.962885619811459, 36.817588805786208 ], [ 74.961948515270961, 36.821526288763238 ], [ 74.964661718488784, 36.824342608688461 ], [ 74.969052078142312, 36.827287674261839 ], [ 74.973448159165969, 36.829862595310615 ], [ 74.975592495245792, 36.83218002326641 ], [ 74.975895894436533, 36.833066647587238 ] ] } },
{ "type": "Feature", "properties": { "segment_id": 1067, "length_km": 9.9999999999999982, "route_code": "N45", "is_kkh_proxy": false, "iso_cc": "PK", "road_type": "Major road", "road_rank": 2, "sample_n": 10, "mean_probability": 0.99242771, "max_probability": 0.99439466, "mean_uncertainty_std": 0.010930438, "mean_reliability_score": 0.96941912, "mean_added_value_fused_minus_conventional": -0.0054803132, "mean_positive_added_value": 0.0, "high80_share": 1.0, "high90_share": 1.0, "very_high_zone_share": 1.0, "uncertainty_norm": 0.023186959, "priority_score": 1.0694163203239442, "hotspot_rank": 30 }, "geometry": { "type": "LineString", "coordinates": [ [ 71.777193839063315, 35.655566058656802 ], [ 71.776120781310453, 35.656385421948329 ], [ 71.76809084339348, 35.657930374218346 ], [ 71.760906100682931, 35.661535263147869 ], [ 71.757419466875675, 35.666170120856293 ], [ 71.758954287047644, 35.669689178455336 ], [ 71.760644793343189, 35.674409866595894 ], [ 71.762490987558962, 35.677843093762824 ], [ 71.763864517916616, 35.683336258487536 ], [ 71.768504858043315, 35.693464279124051 ], [ 71.770407437712819, 35.699901580398915 ], [ 71.776960373724449, 35.704708098971587 ], [ 71.77833449876681, 35.709171294917425 ], [ 71.778402209281353, 35.711746215966372 ], [ 71.779671073332011, 35.716810226733777 ], [ 71.782314419954488, 35.72153091397599 ], [ 71.78446471635182, 35.722818374949618 ], [ 71.784147620039661, 35.728569030072435 ], [ 71.783698821288169, 35.730293660385911 ] ] } },
{ "type": "Feature", "properties": { "segment_id": 1600, "length_km": 10.000000000000011, "route_code": "N35", "is_kkh_proxy": true, "iso_cc": "PK", "road_type": "Highway", "road_rank": 1, "sample_n": 11, "mean_probability": 0.99255127, "max_probability": 0.99494302, "mean_uncertainty_std": 0.011408884, "mean_reliability_score": 0.96856588, "mean_added_value_fused_minus_conventional": -0.0053757755, "mean_positive_added_value": 0.0, "high80_share": 1.0, "high90_share": 1.0, "very_high_zone_share": 1.0, "uncertainty_norm": 0.024201898, "priority_score": 1.0685296416282655, "hotspot_rank": 31 }, "geometry": { "type": "LineString", "coordinates": [ [ 73.831645346877494, 35.48616058467659 ], [ 73.835001112271669, 35.48601150570245 ], [ 73.839428306438634, 35.487213134447238 ], [ 73.843539118453904, 35.48884391714936 ], [ 73.847333789066042, 35.489616393733478 ], [ 73.853237986936008, 35.488414764090209 ], [ 73.860510469003245, 35.486783981387937 ], [ 73.863294363341922, 35.485970139181504 ], [ 73.864621042965098, 35.485582351744704 ], [ 73.87326371725139, 35.4823207854419 ], [ 73.877268910745556, 35.480947494934391 ], [ 73.881379485605777, 35.480604171409155 ], [ 73.885806203665879, 35.478544235647917 ], [ 73.891813874880384, 35.477771759063643 ], [ 73.895819068374607, 35.478115081690447 ], [ 73.897918821063797, 35.481333732777003 ], [ 73.899894357410389, 35.483908652927596 ], [ 73.904240489402923, 35.485088825411822 ], [ 73.908677697090667, 35.485324859549301 ], [ 73.913104176198942, 35.485239029117075 ], [ 73.920377374223833, 35.484981536922234 ], [ 73.926174879187784, 35.48446655253268 ], [ 73.933553577156445, 35.48309326202515 ], [ 73.933695744303179, 35.483070112149605 ] ] } },
{ "type": "Feature", "properties": { "segment_id": 1637, "length_km": 9.9999999999999929, "route_code": "N35", "is_kkh_proxy": true, "iso_cc": "CN", "road_type": "Highway", "road_rank": 1, "sample_n": 10, "mean_probability": 0.99151993, "max_probability": 0.9925406, "mean_uncertainty_std": 0.011181632, "mean_reliability_score": 0.96800214, "mean_added_value_fused_minus_conventional": -0.0019634068, "mean_positive_added_value": 0.0, "high80_share": 1.0, "high90_share": 1.0, "very_high_zone_share": 1.0, "uncertainty_norm": 0.023719823, "priority_score": 1.0680012464523316, "hotspot_rank": 32 }, "geometry": { "type": "LineString", "coordinates": [ [ 75.061235006665171, 36.857478967296124 ], [ 75.063741685942745, 36.857414245769021 ], [ 75.068681480379269, 36.859130858903114 ], [ 75.075884463398793, 36.860418319876381 ], [ 75.080713155099261, 36.861448287756723 ], [ 75.084361555735086, 36.861619949519131 ], [ 75.087366105957514, 36.861619949518968 ], [ 75.09198034015489, 36.862478256535042 ], [ 75.098287227625491, 36.864194869669042 ], [ 75.103865149309229, 36.866168975896123 ], [ 75.107861639932068, 36.867542266403355 ], [ 75.110329630027294, 36.868057250792681 ], [ 75.113870742173859, 36.867885589029896 ], [ 75.11738074027221, 36.867370605538589 ], [ 75.121886016910565, 36.867799758597364 ], [ 75.127602936715661, 36.868743896943805 ], [ 75.133254172605376, 36.870374679645678 ], [ 75.136686923673864, 36.871747971051263 ], [ 75.139047028798217, 36.872863769363875 ], [ 75.14151430383464, 36.873722076380062 ], [ 75.147238733555923, 36.873979568574477 ], [ 75.150457742180393, 36.873893738142165 ], [ 75.157002927544653, 36.875267028649255 ], [ 75.163870098752184, 36.875696182606191 ], [ 75.164835813736588, 36.873636245946628 ], [ 75.166101063168014, 36.871746958186307 ] ] } },
{ "type": "Feature", "properties": { "segment_id": 1546, "length_km": 10.000000000000092, "route_code": "N35", "is_kkh_proxy": true, "iso_cc": "PK", "road_type": "Highway", "road_rank": 1, "sample_n": 11, "mean_probability": 0.99243313, "max_probability": 0.99464005, "mean_uncertainty_std": 0.011876426, "mean_reliability_score": 0.96745324, "mean_added_value_fused_minus_conventional": -0.0058380584, "mean_positive_added_value": 0.0, "high80_share": 1.0, "high90_share": 1.0, "very_high_zone_share": 1.0, "uncertainty_norm": 0.025193702, "priority_score": 1.0674300551414491, "hotspot_rank": 33 }, "geometry": { "type": "LineString", "coordinates": [ [ 72.981624804255119, 35.07919589242065 ], [ 72.983293533842058, 35.080718994231596 ], [ 72.985601067753848, 35.083808898771657 ], [ 72.988013387448589, 35.086383818922236 ], [ 72.990950226251343, 35.089044571301635 ], [ 72.991976976366786, 35.091662406668313 ], [ 72.991262078198901, 35.09539604214438 ], [ 72.990108132927404, 35.098915100641726 ], [ 72.991786600001802, 35.101575851224489 ], [ 72.993539571549249, 35.105438232348718 ], [ 72.996895432211318, 35.107584000338655 ], [ 73.00035822383326, 35.107412338576033 ], [ 73.005395054276136, 35.10612487760239 ], [ 73.008962750258661, 35.106382369797089 ], [ 73.012005806758964, 35.109386443905031 ], [ 73.012635350601769, 35.112562178877241 ], [ 73.014629126340949, 35.117111206153496 ], [ 73.018511653084545, 35.120286942024002 ], [ 73.024282932629177, 35.121316909006239 ], [ 73.028375268093967, 35.120372772456093 ], [ 73.034041643278016, 35.118484497559173 ], [ 73.039498209740913, 35.117025374822944 ], [ 73.043170810084092, 35.117282867017664 ], [ 73.047158241188285, 35.118570327991257 ], [ 73.049152016927522, 35.121145248141858 ], [ 73.050132533938282, 35.123551344490366 ] ] } },
{ "type": "Feature", "properties": { "segment_id": 1627, "length_km": 10.000000000000069, "route_code": "N35", "is_kkh_proxy": true, "iso_cc": "PK", "road_type": "Highway", "road_rank": 1, "sample_n": 11, "mean_probability": 0.9911713, "max_probability": 0.99313718, "mean_uncertainty_std": 0.012107179, "mean_reliability_score": 0.96575987, "mean_added_value_fused_minus_conventional": -0.0028634125, "mean_positive_added_value": 0.00036824291, "high80_share": 1.0, "high90_share": 1.0, "very_high_zone_share": 1.0, "uncertainty_norm": 0.025683204, "priority_score": 1.0658069014549256, "hotspot_rank": 34 }, "geometry": { "type": "LineString", "coordinates": [ [ 74.849781518229605, 36.592255940797585 ], [ 74.84970545941124, 36.592197418160666 ], [ 74.845001580537328, 36.590309143263944 ], [ 74.841901422620595, 36.590480804128354 ], [ 74.838694216962978, 36.588850021426332 ], [ 74.836342336814937, 36.587047576961623 ], [ 74.833990337191139, 36.583185195837451 ], [ 74.831204654303548, 36.579236984281181 ], [ 74.830242634989276, 36.578636169459621 ], [ 74.827785612426851, 36.578035354638125 ], [ 74.824899556280357, 36.579923629535152 ], [ 74.822011472636376, 36.580953598314196 ], [ 74.81891143509398, 36.581640242669728 ], [ 74.815063120681458, 36.582584381016666 ], [ 74.810787201904787, 36.582670211448949 ], [ 74.806404473440864, 36.580524444357486 ], [ 74.795397521347638, 36.573143004736259 ], [ 74.793900968505795, 36.572284698618319 ], [ 74.789942266416489, 36.569538116705246 ], [ 74.790587427471706, 36.567478180045725 ], [ 74.790690542388617, 36.565074920759358 ], [ 74.794407250018466, 36.562499999710248 ], [ 74.796009661232105, 36.560697555245412 ], [ 74.797398330001641, 36.558208465526874 ], [ 74.797825576836587, 36.555633544477928 ], [ 74.798252941350881, 36.552371979073548 ], [ 74.799855233986833, 36.551513672057141 ], [ 74.801564456684559, 36.550397872846041 ], [ 74.802686812701111, 36.548080444890083 ], [ 74.80407536199472, 36.5459346777984 ], [ 74.805943294863113, 36.544760091147126 ] ] } },
{ "type": "Feature", "properties": { "segment_id": 1557, "length_km": 9.9999999999999947, "route_code": "N15", "is_kkh_proxy": false, "iso_cc": "PK", "road_type": "Major road", "road_rank": 2, "sample_n": 10, "mean_probability": 0.99188232, "max_probability": 0.99430656, "mean_uncertainty_std": 0.012730792, "mean_reliability_score": 0.96512079, "mean_added_value_fused_minus_conventional": -0.0038901151, "mean_positive_added_value": 0.0, "high80_share": 1.0, "high90_share": 1.0, "very_high_zone_share": 1.0, "uncertainty_norm": 0.027006088, "priority_score": 1.0650954604148866, "hotspot_rank": 35 }, "geometry": { "type": "LineString", "coordinates": [ [ 74.130187449771952, 35.321357773344914 ], [ 74.129462839431326, 35.317440033025775 ], [ 74.127043844354048, 35.312805175317401 ], [ 74.124835135003494, 35.309629440345233 ], [ 74.12191343370958, 35.307655335016257 ], [ 74.117788434599902, 35.305080413967417 ], [ 74.115895391443843, 35.302333832054231 ], [ 74.114633202773078, 35.297956466540562 ], [ 74.112214208594125, 35.295124053296938 ], [ 74.10832285949347, 35.293149947968018 ], [ 74.105483055807468, 35.291004180876456 ], [ 74.103484750761297, 35.287742614573816 ], [ 74.101395131068159, 35.283794403915813 ], [ 74.097401023682139, 35.280447006282778 ], [ 74.09487843578458, 35.276155472099582 ], [ 74.093511939234503, 35.272808075364814 ], [ 74.09424769987713, 35.269289016867397 ], [ 74.094142676040605, 35.26645660362373 ], [ 74.092986465217294, 35.261220931992057 ], [ 74.090884329297282, 35.256586075181978 ], [ 74.090674042672347, 35.252723694057771 ], [ 74.085735798735442, 35.248088837247728 ], [ 74.081743121467412, 35.245771408393601 ], [ 74.081273261442945, 35.245556104142324 ] ] } },
{ "type": "Feature", "properties": { "segment_id": 1555, "length_km": 6.1817507923624575, "route_code": "N90", "is_kkh_proxy": false, "iso_cc": "PK", "road_type": "Major road", "road_rank": 2, "sample_n": 8, "mean_probability": 0.99066573, "max_probability": 0.99219024, "mean_uncertainty_std": 0.0130594, "mean_reliability_score": 0.96322185, "mean_added_value_fused_minus_conventional": -0.0050091594, "mean_positive_added_value": 0.0, "high80_share": 1.0, "high90_share": 1.0, "very_high_zone_share": 1.0, "uncertainty_norm": 0.027703172, "priority_score": 1.0632211327552796, "hotspot_rank": 36 }, "geometry": { "type": "LineString", "coordinates": [ [ 72.826164096199065, 34.915319033159882 ], [ 72.82686996435848, 34.917469024523307 ], [ 72.828754067479451, 34.919443130750651 ], [ 72.832626939130165, 34.921760558706502 ], [ 72.835976481042394, 34.923133850112265 ], [ 72.838069915879146, 34.925880432025451 ], [ 72.84100067578224, 34.926395416414906 ], [ 72.844559550308531, 34.92802619911707 ], [ 72.846234320815498, 34.930000304446089 ], [ 72.850623250342537, 34.931716919377017 ], [ 72.856591940060483, 34.93283271768972 ], [ 72.860989928198862, 34.934206008197144 ], [ 72.864654779674183, 34.935150146543897 ], [ 72.867691516526349, 34.93532180830649 ], [ 72.870414019098817, 34.933433532511259 ], [ 72.873241305657587, 34.932489395062809 ], [ 72.874497890636846, 34.929742812251291 ], [ 72.875335574130986, 34.92768287649011 ], [ 72.874819517153, 34.924369096509885 ] ] } },
{ "type": "Feature", "properties": { "segment_id": 1068, "length_km": 10.000000000000021, "route_code": "N45", "is_kkh_proxy": false, "iso_cc": "PK", "road_type": "Major road", "road_rank": 2, "sample_n": 11, "mean_probability": 0.99006575, "max_probability": 0.9941501, "mean_uncertainty_std": 0.013041031, "mean_reliability_score": 0.9627136, "mean_added_value_fused_minus_conventional": -0.0062765102, "mean_positive_added_value": 0.0, "high80_share": 1.0, "high90_share": 1.0, "very_high_zone_share": 1.0, "uncertainty_norm": 0.027664203, "priority_score": 1.0626764059066773, "hotspot_rank": 37 }, "geometry": { "type": "LineString", "coordinates": [ [ 71.783698821288169, 35.730293660385911 ], [ 71.783477544211337, 35.731143951121375 ], [ 71.78262531789116, 35.736250877104851 ], [ 71.783682942204436, 35.741615295283061 ], [ 71.784956336459047, 35.745477676407312 ], [ 71.785485267193295, 35.751228332428425 ], [ 71.784744858668105, 35.755605697942123 ], [ 71.783581256507517, 35.761356353064947 ], [ 71.780513524185224, 35.762815475801162 ], [ 71.779343962601047, 35.764961242892774 ], [ 71.781176805156761, 35.770368575388744 ], [ 71.779767155338149, 35.77285766600555 ], [ 71.778600812417608, 35.775346755724023 ], [ 71.776272893037486, 35.7778358463408 ], [ 71.773560524360121, 35.780410766491421 ], [ 71.772360086781319, 35.78392982498881 ], [ 71.773629903944467, 35.786848068664604 ], [ 71.776416659415517, 35.790023803636799 ], [ 71.778603196546371, 35.792684555117887 ], [ 71.780402064818006, 35.801181793052216 ], [ 71.780508517874139, 35.806331634251755 ], [ 71.780112862093745, 35.810108184943864 ], [ 71.780072211530523, 35.813283920814399 ], [ 71.779597696344524, 35.814493051860303 ] ] } },
{ "type": "Feature", "properties": { "segment_id": 1605, "length_km": 9.9999999999999662, "route_code": "N35", "is_kkh_proxy": true, "iso_cc": "PK", "road_type": "Highway", "road_rank": 1, "sample_n": 10, "mean_probability": 0.99112606, "max_probability": 0.99462914, "mean_uncertainty_std": 0.013714169, "mean_reliability_score": 0.96236736, "mean_added_value_fused_minus_conventional": -0.0061503411, "mean_positive_added_value": 0.0, "high80_share": 1.0, "high90_share": 1.0, "very_high_zone_share": 1.0, "uncertainty_norm": 0.029092146, "priority_score": 1.0622920751571656, "hotspot_rank": 38 }, "geometry": { "type": "LineString", "coordinates": [ [ 74.303730047289534, 35.409833857603914 ], [ 74.308245778323311, 35.40807723975059 ], [ 74.310019494667316, 35.407985448996492 ], [ 74.314880014570505, 35.407733917123537 ], [ 74.320777298110571, 35.408077239750234 ], [ 74.326569201182963, 35.407562255360631 ], [ 74.334119678596977, 35.407412051655015 ], [ 74.340573192673617, 35.407197475574463 ], [ 74.347209335146118, 35.406618118809867 ], [ 74.353211880576637, 35.406618118809703 ], [ 74.361214996605256, 35.406789779673744 ], [ 74.366164566503002, 35.406446457046727 ], [ 74.373114824678112, 35.407218932732377 ], [ 74.378380180246381, 35.408678055468428 ], [ 74.385857105401968, 35.409879684213045 ], [ 74.39270210438201, 35.410566330364873 ], [ 74.399547101565517, 35.411167145186276 ], [ 74.40639209874918, 35.410051345975013 ], [ 74.412414775508708, 35.410534323834689 ] ] } },
{ "type": "Feature", "properties": { "segment_id": 1609, "length_km": 10.000000000000068, "route_code": "N35", "is_kkh_proxy": true, "iso_cc": "PK", "road_type": "Highway", "road_rank": 1, "sample_n": 11, "mean_probability": 0.99153811, "max_probability": 0.99456733, "mean_uncertainty_std": 0.014023486, "mean_reliability_score": 0.96208823, "mean_added_value_fused_minus_conventional": -0.0063485992, "mean_positive_added_value": 0.0, "high80_share": 1.0, "high90_share": 1.0, "very_high_zone_share": 1.0, "uncertainty_norm": 0.029748306, "priority_score": 1.0620414972305299, "hotspot_rank": 39 }, "geometry": { "type": "LineString", "coordinates": [ [ 74.625685438457239, 35.544212515164439 ], [ 74.624289037201621, 35.546607971332094 ], [ 74.622601629192516, 35.55270194998019 ], [ 74.624183656733237, 35.557594298984959 ], [ 74.62301647747914, 35.561456680109288 ], [ 74.625443221425542, 35.567035675266084 ], [ 74.628397465989238, 35.570383072000773 ], [ 74.631351710553076, 35.571155548584819 ], [ 74.632571460115756, 35.572663664538283 ], [ 74.633989573863118, 35.574417113989078 ], [ 74.635361196201131, 35.577507019427408 ], [ 74.633145453039916, 35.583772658939814 ], [ 74.628080965258789, 35.586605072183701 ], [ 74.623649478936798, 35.5914115907566 ], [ 74.624071480508292, 35.595703124939838 ], [ 74.623645426635932, 35.603857040247405 ], [ 74.621533991354113, 35.610294341522383 ], [ 74.619844915173616, 35.614671707036173 ], [ 74.614777685734197, 35.620508193489677 ], [ 74.611076951947794, 35.622739791911911 ], [ 74.610959195952248, 35.622870280328186 ] ] } },
{ "type": "Feature", "properties": { "segment_id": 1617, "length_km": 9.9999999999999911, "route_code": "N35", "is_kkh_proxy": true, "iso_cc": "PK", "road_type": "Highway", "road_rank": 1, "sample_n": 10, "mean_probability": 0.98856604, "max_probability": 0.99450541, "mean_uncertainty_std": 0.01269034, "mean_reliability_score": 0.96208811, "mean_added_value_fused_minus_conventional": -0.0050783753, "mean_positive_added_value": 0.00018630028, "high80_share": 1.0, "high90_share": 1.0, "very_high_zone_share": 1.0, "uncertainty_norm": 0.026920276, "priority_score": 1.0620001316070558, "hotspot_rank": 40 }, "geometry": { "type": "LineString", "coordinates": [ [ 74.297775029357112, 36.048405061174165 ], [ 74.297775031507484, 36.049661636080067 ], [ 74.295124769650869, 36.056528091312295 ], [ 74.293956638183218, 36.060905455927717 ], [ 74.292894603140624, 36.065368651873598 ], [ 74.292151213106123, 36.068973541701453 ], [ 74.29321324904673, 36.072406768868362 ], [ 74.2949123387464, 36.077814102262614 ], [ 74.295230985550944, 36.081676483386893 ], [ 74.29533720145173, 36.086912155018574 ], [ 74.295231581133422, 36.096868514790835 ], [ 74.293956638181811, 36.099786758466685 ], [ 74.294548869601414, 36.101760864694015 ], [ 74.295231581133152, 36.104249953514191 ], [ 74.29714405574741, 36.108026505104561 ], [ 74.298206568693374, 36.11317634540579 ], [ 74.299800277925385, 36.11626625084417 ], [ 74.300544023692467, 36.121072769416848 ], [ 74.301181555355257, 36.123046874745853 ], [ 74.30033147421095, 36.127252578497007 ], [ 74.299005986651522, 36.128818988824264 ], [ 74.297569037029803, 36.132574081459211 ], [ 74.297478370691323, 36.136017579860933 ] ] } },
{ "type": "Feature", "properties": { "segment_id": 1066, "length_km": 10.000000000000004, "route_code": "N45", "is_kkh_proxy": false, "iso_cc": "PK", "road_type": "Major road", "road_rank": 2, "sample_n": 11, "mean_probability": 0.99019891, "max_probability": 0.99456668, "mean_uncertainty_std": 0.014282444, "mean_reliability_score": 0.96024632, "mean_added_value_fused_minus_conventional": -0.0073403176, "mean_positive_added_value": 0.0, "high80_share": 1.0, "high90_share": 1.0, "very_high_zone_share": 1.0, "uncertainty_norm": 0.030297639, "priority_score": 1.0601982235908509, "hotspot_rank": 41 }, "geometry": { "type": "LineString", "coordinates": [ [ 71.803510877335057, 35.574350264187714 ], [ 71.806717514872631, 35.584287643358003 ], [ 71.807456373803944, 35.593986510935494 ], [ 71.805451034950735, 35.599737167854947 ], [ 71.804499984067832, 35.604208946304993 ], [ 71.801232099913719, 35.607386827352421 ], [ 71.80028176319145, 35.613276958499512 ], [ 71.799320697889797, 35.62119483966945 ], [ 71.793973445618221, 35.626988410906655 ], [ 71.793250441951656, 35.63175201426327 ], [ 71.794448733455255, 35.637416839852285 ], [ 71.789767623289393, 35.646874904136432 ], [ 71.786648869353925, 35.648167133367565 ], [ 71.781403541731152, 35.652351379061471 ], [ 71.777193839063315, 35.655566058656802 ] ] } },
{ "type": "Feature", "properties": { "segment_id": 1616, "length_km": 9.9999999999999893, "route_code": "N35", "is_kkh_proxy": true, "iso_cc": "PK", "road_type": "Highway", "road_rank": 1, "sample_n": 10, "mean_probability": 0.9880203, "max_probability": 0.99460715, "mean_uncertainty_std": 0.014795005, "mean_reliability_score": 0.95727032, "mean_added_value_fused_minus_conventional": -0.0067369817, "mean_positive_added_value": 0.0, "high80_share": 1.0, "high90_share": 1.0, "very_high_zone_share": 1.0, "uncertainty_norm": 0.031384945, "priority_score": 1.0570113420486451, "hotspot_rank": 42 }, "geometry": { "type": "LineString", "coordinates": [ [ 74.344936516299271, 35.971414533413238 ], [ 74.34180069018457, 35.974130631219737 ], [ 74.337982297758714, 35.976448059175709 ], [ 74.333633542683415, 35.980825424689542 ], [ 74.330663681807877, 35.984258651856571 ], [ 74.328436256057614, 35.988636016472014 ], [ 74.325996756933208, 35.991983414105199 ], [ 74.322920799632726, 35.994987487314908 ], [ 74.321329713481077, 35.997133254406563 ], [ 74.318253875656524, 35.999965667650301 ], [ 74.314753652131714, 36.002712250461933 ], [ 74.312844396180836, 36.005115509748343 ], [ 74.311359525930243, 36.007175445509546 ], [ 74.310934782700386, 36.010780334439076 ], [ 74.311890007156904, 36.016273498265477 ], [ 74.31210219910848, 36.023139953497676 ], [ 74.309661269866154, 36.027431487680985 ], [ 74.302444578564391, 36.038589477096622 ], [ 74.298199535785614, 36.042194366924555 ], [ 74.297775031507669, 36.044254303584076 ], [ 74.297775029357112, 36.048405061174165 ] ] } },
{ "type": "Feature", "properties": { "segment_id": 1065, "length_km": 9.9999999999999769, "route_code": "N45", "is_kkh_proxy": false, "iso_cc": "PK", "road_type": "Major road", "road_rank": 2, "sample_n": 10, "mean_probability": 0.98980731, "max_probability": 0.99439311, "mean_uncertainty_std": 0.016352048, "mean_reliability_score": 0.95558625, "mean_added_value_fused_minus_conventional": -0.0077074231, "mean_positive_added_value": 0.0, "high80_share": 1.0, "high90_share": 1.0, "very_high_zone_share": 1.0, "uncertainty_norm": 0.034687933, "priority_score": 1.0554729461669923, "hotspot_rank": 43 }, "geometry": { "type": "LineString", "coordinates": [ [ 71.741397330730194, 35.506470727383984 ], [ 71.743745565843795, 35.509958267243938 ], [ 71.749053001188713, 35.51343441052525 ], [ 71.752967595990583, 35.517441629717695 ], [ 71.753916621172522, 35.519083141897632 ], [ 71.756111145224537, 35.520338416234615 ], [ 71.759136080908377, 35.520386695291229 ], [ 71.762836217309228, 35.519485473058864 ], [ 71.767265677024653, 35.523691176809955 ], [ 71.7695859670131, 35.527124404875195 ], [ 71.771484374906422, 35.532703399133737 ], [ 71.775702953312276, 35.538711548247925 ], [ 71.78097617631957, 35.542831421566859 ], [ 71.788569689315324, 35.547380447944839 ], [ 71.793737530956648, 35.552530288246061 ], [ 71.795319080591383, 35.555362701489727 ], [ 71.797007679763581, 35.561113357510841 ], [ 71.802812457484094, 35.572185515595827 ], [ 71.803510877335057, 35.574350264187714 ] ] } },
{ "type": "Feature", "properties": { "segment_id": 1614, "length_km": 6.4528883404050994, "route_code": "N35", "is_kkh_proxy": true, "iso_cc": "PK", "road_type": "Highway", "road_rank": 1, "sample_n": 9, "mean_probability": 0.98281205, "max_probability": 0.9933275, "mean_uncertainty_std": 0.014069359, "mean_reliability_score": 0.95358658, "mean_added_value_fused_minus_conventional": -0.0068122214, "mean_positive_added_value": 0.00046896935, "high80_share": 1.0, "high90_share": 1.0, "very_high_zone_share": 1.0, "uncertainty_norm": 0.029845618, "priority_score": 1.0535966515541078, "hotspot_rank": 44 }, "geometry": { "type": "LineString", "coordinates": [ [ 74.448515788564137, 35.877450607223039 ], [ 74.446274042799942, 35.876798630119453 ], [ 74.442460538107085, 35.876026153535371 ], [ 74.439706446274585, 35.875940322205004 ], [ 74.437270045439277, 35.876798630119723 ], [ 74.433774471593907, 35.877227783178832 ], [ 74.431126238132919, 35.877399444941496 ], [ 74.427312852017721, 35.877914428432724 ], [ 74.425406099671349, 35.877914428432767 ], [ 74.423605324274149, 35.876970290984389 ], [ 74.421168924337351, 35.875425338714436 ], [ 74.419474125889295, 35.87430953950345 ], [ 74.416084409517239, 35.874309539503543 ], [ 74.413118363786495, 35.874910355223534 ], [ 74.410046459684182, 35.876798630120518 ], [ 74.40824568428684, 35.880060195524933 ], [ 74.406021238248186, 35.883493423590252 ], [ 74.403055191619075, 35.886325836834004 ], [ 74.400406957259847, 35.888471603925694 ], [ 74.398998618979832, 35.889094113959764 ], [ 74.398020625823634, 35.892076491956992 ], [ 74.397278905757176, 35.894222259946943 ], [ 74.39674902101136, 35.895938873081292 ], [ 74.397886039329094, 35.897505283408471 ] ] } },
{ "type": "Feature", "properties": { "segment_id": 1544, "length_km": 9.9999999999999414, "route_code": "N35", "is_kkh_proxy": true, "iso_cc": "PK", "road_type": "Highway", "road_rank": 1, "sample_n": 10, "mean_probability": 0.98801434, "max_probability": 0.9940027, "mean_uncertainty_std": 0.016755026, "mean_reliability_score": 0.95307493, "mean_added_value_fused_minus_conventional": -0.0081988396, "mean_positive_added_value": 0.0, "high80_share": 1.0, "high90_share": 1.0, "very_high_zone_share": 1.0, "uncertainty_norm": 0.035542779, "priority_score": 1.0528975486755372, "hotspot_rank": 45 }, "geometry": { "type": "LineString", "coordinates": [ [ 72.901996500251244, 34.9737409919993 ], [ 72.902262330435136, 34.974889755200586 ], [ 72.904670834086517, 34.979867935535871 ], [ 72.905195236413476, 34.984331131481703 ], [ 72.907951713270009, 34.989030361565028 ], [ 72.911122441033342, 34.997173548293077 ], [ 72.911122441033342, 34.999769925602578 ], [ 72.908528208900279, 35.000360012743045 ], [ 72.903051376444793, 35.001304149293198 ], [ 72.895975351442118, 35.004930496279918 ], [ 72.890422463123102, 35.008449554777314 ], [ 72.88518393035632, 35.01239776633372 ], [ 72.88308846981856, 35.017032623143848 ], [ 72.883402704996541, 35.021409988657496 ], [ 72.886435509024395, 35.025014877587026 ], [ 72.892515539531999, 35.026903152483904 ], [ 72.896184563681871, 35.028791427380774 ], [ 72.898281096808034, 35.031967163251288 ], [ 72.898593902766422, 35.035104513211394 ], [ 72.898700475298497, 35.036172867002406 ], [ 72.899538994225878, 35.038833618483459 ], [ 72.904411223874206, 35.040241588083894 ] ] } },
{ "type": "Feature", "properties": { "segment_id": 105, "length_km": 2.9611364457484495, "route_code": "N10", "is_kkh_proxy": false, "iso_cc": "PK", "road_type": "Highway", "road_rank": 1, "sample_n": 5, "mean_probability": 0.98561269, "max_probability": 0.98984766, "mean_uncertainty_std": 0.016283389, "mean_reliability_score": 0.95159638, "mean_added_value_fused_minus_conventional": -0.0015986204, "mean_positive_added_value": 0.0031765818, "high80_share": 1.0, "high90_share": 1.0, "very_high_zone_share": 1.0, "uncertainty_norm": 0.034542285, "priority_score": 1.0523615837097169, "hotspot_rank": 46 }, "geometry": { "type": "LineString", "coordinates": [ [ 65.347589418950449, 25.387569420775915 ], [ 65.348627686366029, 25.3896617893121 ], [ 65.349862813287956, 25.391292572014279 ], [ 65.352336407068009, 25.392150879030602 ], [ 65.354997277126955, 25.392236709462757 ], [ 65.356082201241776, 25.392472744498605 ], [ 65.358338713540149, 25.392687320578954 ], [ 65.360984087660441, 25.394039153927555 ], [ 65.364785193801197, 25.395326614002876 ], [ 65.36641502428931, 25.395584106197621 ], [ 65.36754107507447, 25.395326614002894 ], [ 65.36820626316937, 25.394554138317048 ], [ 65.369061589575665, 25.393352508673882 ], [ 65.371302981431185, 25.391016598779352 ] ] } },
{ "type": "Feature", "properties": { "segment_id": 1603, "length_km": 9.9999999999999556, "route_code": "N35", "is_kkh_proxy": true, "iso_cc": "PK", "road_type": "Highway", "road_rank": 1, "sample_n": 10, "mean_probability": 0.98757201, "max_probability": 0.99496919, "mean_uncertainty_std": 0.016810793, "mean_reliability_score": 0.95277536, "mean_added_value_fused_minus_conventional": -0.0093191564, "mean_positive_added_value": 0.0, "high80_share": 1.0, "high90_share": 1.0, "very_high_zone_share": 1.0, "uncertainty_norm": 0.035661079, "priority_score": 1.05235413312912, "hotspot_rank": 47 }, "geometry": { "type": "LineString", "coordinates": [ [ 74.110644474200711, 35.427029314149436 ], [ 74.111404062052856, 35.426616668792541 ], [ 74.116881609571351, 35.423784256447064 ], [ 74.121727109641924, 35.420179367517449 ], [ 74.126151205520813, 35.415887832435793 ], [ 74.131632209756617, 35.412025451311408 ], [ 74.136160612616507, 35.410051345982275 ], [ 74.142479181769545, 35.407819747560062 ], [ 74.147428871141898, 35.406274795289917 ], [ 74.148905754470974, 35.405628920075308 ], [ 74.151746512167975, 35.404386520392904 ], [ 74.156380177816416, 35.403184890749621 ], [ 74.160592556952366, 35.404129028197985 ], [ 74.163435936831661, 35.405759810900101 ], [ 74.167753697333751, 35.405588150035705 ], [ 74.170597076314792, 35.404815673451466 ], [ 74.173019171478401, 35.402669906359776 ], [ 74.177021027732508, 35.400524139268065 ], [ 74.179969668603761, 35.400180816641118 ], [ 74.185025930508445, 35.399751663582016 ], [ 74.190606952270059, 35.400009155776615 ], [ 74.195977450251391, 35.400609969699751 ], [ 74.200926662618571, 35.401639938478525 ], [ 74.20629715970162, 35.402841567223263 ], [ 74.207934302846496, 35.403131685533701 ] ] } },
{ "type": "Feature", "properties": { "segment_id": 1601, "length_km": 9.9999999999999893, "route_code": "N35", "is_kkh_proxy": true, "iso_cc": "PK", "road_type": "Highway", "road_rank": 1, "sample_n": 10, "mean_probability": 0.98832285, "max_probability": 0.99456161, "mean_uncertainty_std": 0.017244313, "mean_reliability_score": 0.95245105, "mean_added_value_fused_minus_conventional": -0.0092495559, "mean_positive_added_value": 0.0, "high80_share": 1.0, "high90_share": 1.0, "very_high_zone_share": 1.0, "uncertainty_norm": 0.036580712, "priority_score": 1.0521693587303163, "hotspot_rank": 48 }, "geometry": { "type": "LineString", "coordinates": [ [ 73.933695744303179, 35.483070112149605 ], [ 73.938296914523676, 35.482320785440884 ], [ 73.944832326205329, 35.481548309754913 ], [ 73.94999790229916, 35.480690002738513 ], [ 73.954319477047008, 35.479831694823808 ], [ 73.958633900306879, 35.479187964786085 ], [ 73.961267948469782, 35.477578640141061 ], [ 73.963384032531096, 35.475111008479708 ], [ 73.96475434332784, 35.4718494412787 ], [ 73.966019154180884, 35.468759536738631 ], [ 73.967178583667888, 35.464897155614366 ], [ 73.968548775887072, 35.460433959668507 ], [ 73.970973015328752, 35.456314087247783 ], [ 73.974556804631675, 35.451765059971422 ], [ 73.977196574164694, 35.449361800685047 ], [ 73.981094957073566, 35.447473525788077 ], [ 73.985520124641894, 35.445241928264245 ], [ 73.990261316832502, 35.44301032984206 ], [ 73.996477604704509, 35.441808701097088 ], [ 74.001008153638892, 35.442752837647163 ], [ 74.00553870257329, 35.443611145561682 ], [ 74.009226321851799, 35.443611145561633 ], [ 74.012808562459242, 35.442323684587933 ], [ 74.015126467422405, 35.440521240123125 ], [ 74.015821183767045, 35.439747821336567 ] ] } },
{ "type": "Feature", "properties": { "segment_id": 1696, "length_km": 9.9999999999999218, "route_code": "314", "is_kkh_proxy": true, "iso_cc": "CN", "road_type": "Highway", "road_rank": 1, "sample_n": 10, "mean_probability": 0.99274284, "max_probability": 0.99420249, "mean_uncertainty_std": 0.019279463, "mean_reliability_score": 0.95219004, "mean_added_value_fused_minus_conventional": -0.0054846583, "mean_positive_added_value": 0.0, "high80_share": 1.0, "high90_share": 1.0, "very_high_zone_share": 1.0, "uncertainty_norm": 0.040897917, "priority_score": 1.0521417617797852, "hotspot_rank": 49 }, "geometry": { "type": "LineString", "coordinates": [ [ 75.155108237059238, 38.744902679186481 ], [ 75.159611465098735, 38.744401931437331 ], [ 75.163133861744015, 38.743886947047798 ], [ 75.167757035974816, 38.743200302692223 ], [ 75.169408204149676, 38.742856979167009 ], [ 75.172270180956176, 38.742513656540069 ], [ 75.174973490130199, 38.742626308869895 ], [ 75.177883268987756, 38.744074702128259 ], [ 75.18005013661211, 38.74499201857725 ], [ 75.184136154234125, 38.746826648780193 ], [ 75.186426761195847, 38.7482750420386 ], [ 75.19208383793017, 38.752555846743981 ], [ 75.191643597862267, 38.756504059198697 ], [ 75.191973807781338, 38.759078979349333 ], [ 75.193955184976758, 38.763027191804035 ], [ 75.195529105222803, 38.767828345637831 ], [ 75.197572591039048, 38.77033889251517 ], [ 75.198873045247936, 38.77130448802076 ], [ 75.199987651498915, 38.771594166852104 ], [ 75.200978400733263, 38.77154588779544 ], [ 75.202093006984342, 38.771352767975642 ], [ 75.202959897405307, 38.77125620896404 ], [ 75.202216865797766, 38.770821690267844 ], [ 75.200482966378317, 38.770387173368363 ], [ 75.202402594279917, 38.770338892515028 ], [ 75.203517200530982, 38.770435452424891 ], [ 75.204755665595314, 38.770869970222712 ], [ 75.206365706201368, 38.771883845683277 ], [ 75.208285334102911, 38.772414923390976 ], [ 75.209523799167258, 38.772801161233872 ], [ 75.210700394562977, 38.77289772024541 ], [ 75.213218929266134, 38.772296905423765 ], [ 75.2164112354683, 38.772039414127249 ], [ 75.222156169235376, 38.771449326986605 ], [ 75.224336984103331, 38.770580291390786 ], [ 75.226208331151867, 38.769636154840576 ], [ 75.228720070998122, 38.769952654671307 ], [ 75.230144264544649, 38.770290612559229 ], [ 75.231382134025935, 38.77143859840691 ], [ 75.233178498697086, 38.772897720244728 ], [ 75.234416964659829, 38.773573637817314 ], [ 75.236955883933419, 38.774056434671728 ], [ 75.237649771997965, 38.774151115500601 ] ] } },
{ "type": "Feature", "properties": { "segment_id": 1631, "length_km": 10.000000000000002, "route_code": "N35", "is_kkh_proxy": true, "iso_cc": "PK", "road_type": "Highway", "road_rank": 1, "sample_n": 11, "mean_probability": 0.98733753, "max_probability": 0.99374753, "mean_uncertainty_std": 0.017126622, "mean_reliability_score": 0.95156252, "mean_added_value_fused_minus_conventional": -0.0091288248, "mean_positive_added_value": 0.0, "high80_share": 1.0, "high90_share": 1.0, "very_high_zone_share": 1.0, "uncertainty_norm": 0.03633105, "priority_score": 1.0514665007591248, "hotspot_rank": 50 }, "geometry": { "type": "LineString", "coordinates": [ [ 74.860852728984142, 36.374078920874432 ], [ 74.858022453113151, 36.36922538313457 ], [ 74.858259918267578, 36.366910576462651 ], [ 74.858296515632446, 36.365641951363905 ], [ 74.857050897284125, 36.363576650863919 ], [ 74.855697037333883, 36.359888553684591 ], [ 74.85507428834687, 36.358501911517095 ], [ 74.854414821620892, 36.356820106303431 ], [ 74.854891063469864, 36.355020403496887 ], [ 74.858224751021794, 36.354223728095427 ], [ 74.858863712803227, 36.353502273124427 ], [ 74.859283329348131, 36.35219872062909 ], [ 74.860302449175492, 36.35060548750571 ], [ 74.861980916253003, 36.349350214066959 ], [ 74.863239766785767, 36.348143219684857 ], [ 74.86443865477321, 36.346501707504842 ], [ 74.866358996834734, 36.345680951863962 ], [ 74.868400098522045, 36.342108249570941 ], [ 74.868759633944208, 36.338052749525204 ], [ 74.869838358787547, 36.335059403996624 ], [ 74.871396424667623, 36.330327988174837 ], [ 74.872175456260237, 36.327334641747974 ], [ 74.872714758943999, 36.324920653882124 ], [ 74.872295262773648, 36.323134302735696 ], [ 74.87069726138968, 36.322023868263607 ], [ 74.868528487541013, 36.321267485896144 ], [ 74.864778878215176, 36.319770813581243 ], [ 74.861476661342877, 36.317195892532418 ], [ 74.859331371252622, 36.314127445151293 ], [ 74.857171179009981, 36.312799692042312 ], [ 74.854681613179565, 36.311206459817448 ], [ 74.85402262435727, 36.31038033943782 ], [ 74.852191926076571, 36.310203313834734 ], [ 74.849702360246113, 36.309583783512615 ], [ 74.847578765368169, 36.309170722873723 ], [ 74.845345498770229, 36.309318184920969 ], [ 74.844100714956681, 36.309377193455425 ], [ 74.842196823743194, 36.308934688736429 ], [ 74.841061593970409, 36.307695507717767 ], [ 74.840460698117766, 36.306510340148684 ] ] } }
]
}
